{
"type": "FeatureCollection",
"name": "izmir_sinir",
"crs": { "type": "name", "properties": { "name": "urn:ogc:def:crs:OGC:1.3:CRS84" } },
"features": [
{ "type": "Feature", "properties": { "GID_2": "TUR.41.1_1", "GID_0": "TUR", "COUNTRY": "Turkey", "GID_1": "TUR.41_1", "NAME_1": "Izmir", "NL_NAME_1": "NA", "NAME_2": "Aliağa", "VARNAME_2": "NA", "NL_NAME_2": "NA", "TYPE_2": "District", "ENGTYPE_2": "District", "CC_2": "NA", "HASC_2": "TR.IZ.AL" }, "geometry": { "type": "MultiPolygon", "coordinates": [ [ [ [ 27.1206, 38.7704 ], [ 27.1141, 38.7599 ], [ 27.1101, 38.7562 ], [ 27.104, 38.7537 ], [ 27.0558, 38.7498 ], [ 26.9745, 38.7192 ], [ 26.9565, 38.7175 ], [ 26.9263, 38.7179 ], [ 26.9183, 38.7291 ], [ 26.9004, 38.744 ], [ 26.9001, 38.7474 ], [ 26.8968, 38.749 ], [ 26.8996, 38.7524 ], [ 26.9054, 38.7515 ], [ 26.9068, 38.7526 ], [ 26.9068, 38.7551 ], [ 26.904, 38.7568 ], [ 26.9043, 38.7601 ], [ 26.9074, 38.7601 ], [ 26.9051, 38.7635 ], [ 26.9071, 38.764 ], [ 26.9071, 38.7665 ], [ 26.9112, 38.7665 ], [ 26.9118, 38.7649 ], [ 26.9179, 38.7629 ], [ 26.9235, 38.7576 ], [ 26.9301, 38.756 ], [ 26.9354, 38.7585 ], [ 26.9387, 38.7629 ], [ 26.9387, 38.7668 ], [ 26.9338, 38.7718 ], [ 26.9301, 38.7729 ], [ 26.9321, 38.781 ], [ 26.9296, 38.781 ], [ 26.929, 38.7793 ], [ 26.9265, 38.7804 ], [ 26.926, 38.7774 ], [ 26.9243, 38.7779 ], [ 26.9251, 38.7804 ], [ 26.9171, 38.7857 ], [ 26.9149, 38.7904 ], [ 26.9101, 38.794 ], [ 26.9112, 38.7965 ], [ 26.9054, 38.8026 ], [ 26.9037, 38.8074 ], [ 26.8985, 38.8085 ], [ 26.8943, 38.8138 ], [ 26.8915, 38.8213 ], [ 26.8926, 38.8251 ], [ 26.8963, 38.8254 ], [ 26.8993, 38.8213 ], [ 26.914, 38.8174 ], [ 26.9251, 38.8293 ], [ 26.9285, 38.8301 ], [ 26.9293, 38.8288 ], [ 26.9368, 38.8343 ], [ 26.9443, 38.8365 ], [ 26.9463, 38.8251 ], [ 26.9432, 38.821 ], [ 26.9426, 38.8121 ], [ 26.949, 38.8085 ], [ 26.9532, 38.8032 ], [ 26.9604, 38.8029 ], [ 26.9651, 38.8049 ], [ 26.969, 38.804 ], [ 26.9768, 38.8085 ], [ 26.9843, 38.8226 ], [ 26.9837, 38.826 ], [ 26.9796, 38.8293 ], [ 26.9624, 38.831 ], [ 26.9713, 38.846 ], [ 26.976, 38.8449 ], [ 26.9788, 38.849 ], [ 26.9863, 38.8468 ], [ 26.9882, 38.8482 ], [ 26.9871, 38.8532 ], [ 26.9901, 38.8563 ], [ 27.0012, 38.8565 ], [ 27.0057, 38.8587 ], [ 27.0076, 38.8668 ], [ 27.0121, 38.8657 ], [ 27.0243, 38.8724 ], [ 27.0265, 38.8724 ], [ 27.0265, 38.8699 ], [ 27.0201, 38.8663 ], [ 27.0193, 38.8626 ], [ 27.0224, 38.8585 ], [ 27.0276, 38.8582 ], [ 27.0315, 38.8554 ], [ 27.0346, 38.856 ], [ 27.036, 38.8621 ], [ 27.0388, 38.8618 ], [ 27.0446, 38.8685 ], [ 27.0515, 38.8676 ], [ 27.0532, 38.8693 ], [ 27.0557, 38.869 ], [ 27.0563, 38.8663 ], [ 27.0585, 38.8657 ], [ 27.0632, 38.8696 ], [ 27.0635, 38.874 ], [ 27.0601, 38.8757 ], [ 27.061, 38.8776 ], [ 27.0632, 38.8785 ], [ 27.064, 38.876 ], [ 27.0657, 38.8763 ], [ 27.0663, 38.8799 ], [ 27.0635, 38.8815 ], [ 27.0618, 38.8874 ], [ 27.0596, 38.8896 ], [ 27.051, 38.8935 ], [ 27.0743, 38.9079 ], [ 27.0857, 38.9132 ], [ 27.0927, 38.9146 ], [ 27.1103, 38.9141 ], [ 27.1682, 38.8917 ], [ 27.1481, 38.8561 ], [ 27.142, 38.8262 ], [ 27.132, 38.8069 ], [ 27.1275, 38.7878 ], [ 27.1206, 38.7704 ] ] ], [ [ [ 26.8835, 38.8563 ], [ 26.8879, 38.8535 ], [ 26.8876, 38.8476 ], [ 26.8846, 38.8457 ], [ 26.8824, 38.8462 ], [ 26.8824, 38.8479 ], [ 26.8799, 38.8482 ], [ 26.8793, 38.8465 ], [ 26.8762, 38.8474 ], [ 26.8762, 38.8521 ], [ 26.8835, 38.8563 ] ] ], [ [ [ 26.8932, 38.8662 ], [ 26.8932, 38.8629 ], [ 26.8918, 38.8621 ], [ 26.8913, 38.8643 ], [ 26.8932, 38.8662 ] ] ], [ [ [ 27.0382, 38.8851 ], [ 27.0399, 38.8854 ], [ 27.0413, 38.8865 ], [ 27.0413, 38.8846 ], [ 27.0382, 38.8851 ] ] ] ] } },
{ "type": "Feature", "properties": { "GID_2": "TUR.41.2_1", "GID_0": "TUR", "COUNTRY": "Turkey", "GID_1": "TUR.41_1", "NAME_1": "Izmir", "NL_NAME_1": "NA", "NAME_2": "Balçova", "VARNAME_2": "NA", "NL_NAME_2": "NA", "TYPE_2": "District", "ENGTYPE_2": "District", "CC_2": "NA", "HASC_2": "TR.IZ.BA" }, "geometry": { "type": "MultiPolygon", "coordinates": [ [ [ [ 27.0237, 38.4143 ], [ 27.0282, 38.4146 ], [ 27.0382, 38.4107 ], [ 27.0596, 38.4154 ], [ 27.0651, 38.4087 ], [ 27.0713, 38.4063 ], [ 27.0704, 38.4046 ], [ 27.074, 38.4018 ], [ 27.0854, 38.3985 ], [ 27.0901, 38.3999 ], [ 27.0907, 38.3623 ], [ 27.0869, 38.3542 ], [ 27.0794, 38.3504 ], [ 27.0637, 38.3477 ], [ 27.0475, 38.3717 ], [ 27.0375, 38.3798 ], [ 27.0269, 38.3967 ], [ 27.0237, 38.4055 ], [ 27.0237, 38.4143 ] ] ] ] } },
{ "type": "Feature", "properties": { "GID_2": "TUR.41.3_1", "GID_0": "TUR", "COUNTRY": "Turkey", "GID_1": "TUR.41_1", "NAME_1": "Izmir", "NL_NAME_1": "NA", "NAME_2": "Bayındır", "VARNAME_2": "NA", "NL_NAME_2": "NA", "TYPE_2": "District", "ENGTYPE_2": "District", "CC_2": "NA", "HASC_2": "TR.IZ.BD" }, "geometry": { "type": "MultiPolygon", "coordinates": [ [ [ [ 27.4728, 38.2801 ], [ 27.5025, 38.2888 ], [ 27.5319, 38.3061 ], [ 27.5621, 38.3179 ], [ 27.6077, 38.3238 ], [ 27.6413, 38.3356 ], [ 27.6624, 38.346 ], [ 27.6682, 38.3545 ], [ 27.6709, 38.373 ], [ 27.6737, 38.3807 ], [ 27.689, 38.4042 ], [ 27.711, 38.4271 ], [ 27.7183, 38.4542 ], [ 27.7427, 38.4469 ], [ 27.7549, 38.4387 ], [ 27.7662, 38.4227 ], [ 27.7849, 38.404 ], [ 27.807, 38.3686 ], [ 27.8213, 38.3508 ], [ 27.8066, 38.3321 ], [ 27.7912, 38.3057 ], [ 27.7892, 38.2935 ], [ 27.7876, 38.2465 ], [ 27.7766, 38.2243 ], [ 27.7719, 38.2052 ], [ 27.7655, 38.1923 ], [ 27.7575, 38.1552 ], [ 27.7538, 38.1506 ], [ 27.7439, 38.1468 ], [ 27.7283, 38.1457 ], [ 27.5252, 38.1467 ], [ 27.5044, 38.1446 ], [ 27.4813, 38.1386 ], [ 27.4686, 38.1596 ], [ 27.4481, 38.1799 ], [ 27.4457, 38.1876 ], [ 27.4475, 38.1953 ], [ 27.4612, 38.2157 ], [ 27.4826, 38.2361 ], [ 27.487, 38.2433 ], [ 27.4885, 38.2516 ], [ 27.4873, 38.2599 ], [ 27.4835, 38.267 ], [ 27.4728, 38.2801 ] ] ] ] } },
{ "type": "Feature", "properties": { "GID_2": "TUR.41.4_1", "GID_0": "TUR", "COUNTRY": "Turkey", "GID_1": "TUR.41_1", "NAME_1": "Izmir", "NL_NAME_1": "NA", "NAME_2": "Bergama", "VARNAME_2": "NA", "NL_NAME_2": "NA", "TYPE_2": "District", "ENGTYPE_2": "District", "CC_2": "NA", "HASC_2": "TR.IZ.BE" }, "geometry": { "type": "MultiPolygon", "coordinates": [ [ [ [ 26.8902, 39.2299 ], [ 26.9064, 39.2394 ], [ 26.9575, 39.2594 ], [ 27.1186, 39.383 ], [ 27.1292, 39.3893 ], [ 27.1475, 39.396 ], [ 27.1579, 39.4024 ], [ 27.167, 39.4102 ], [ 27.1768, 39.4215 ], [ 27.1999, 39.4166 ], [ 27.2609, 39.4142 ], [ 27.316, 39.3944 ], [ 27.3623, 39.3911 ], [ 27.3909, 39.3831 ], [ 27.4077, 39.3815 ], [ 27.4268, 39.359 ], [ 27.4415, 39.3356 ], [ 27.4497, 39.3122 ], [ 27.4588, 39.2955 ], [ 27.4607, 39.2833 ], [ 27.4619, 39.2394 ], [ 27.4644, 39.2306 ], [ 27.4744, 39.211 ], [ 27.4757, 39.1958 ], [ 27.4738, 39.1803 ], [ 27.471, 39.1719 ], [ 27.4373, 39.1606 ], [ 27.3526, 39.1591 ], [ 27.3417, 39.1572 ], [ 27.3206, 39.1501 ], [ 27.2966, 39.1458 ], [ 27.2613, 39.1315 ], [ 27.2456, 39.1169 ], [ 27.2289, 39.1068 ], [ 27.2221, 39.0978 ], [ 27.2196, 39.0833 ], [ 27.2195, 39.0501 ], [ 27.221, 39.0383 ], [ 27.2248, 39.0301 ], [ 27.2362, 39.0186 ], [ 27.2664, 38.9959 ], [ 27.2783, 38.9889 ], [ 27.3001, 38.9799 ], [ 27.3138, 38.9702 ], [ 27.3225, 38.961 ], [ 27.3475, 38.921 ], [ 27.3348, 38.9169 ], [ 27.3115, 38.9124 ], [ 27.2898, 38.9055 ], [ 27.2289, 38.9023 ], [ 27.1995, 38.894 ], [ 27.1682, 38.8917 ], [ 27.1167, 38.9124 ], [ 27.1033, 38.915 ], [ 27.0927, 38.9146 ], [ 27.0827, 38.9121 ], [ 27.0743, 38.9079 ], [ 27.051, 38.8935 ], [ 27.0501, 38.8946 ], [ 27.0518, 38.8968 ], [ 27.0487, 38.8965 ], [ 27.0482, 38.8937 ], [ 27.0435, 38.8907 ], [ 27.0399, 38.8935 ], [ 27.0376, 38.8929 ], [ 27.0368, 38.8951 ], [ 27.0374, 38.8965 ], [ 27.0413, 38.8971 ], [ 27.0426, 38.8993 ], [ 27.0421, 38.901 ], [ 27.0446, 38.9046 ], [ 27.0435, 38.909 ], [ 27.0549, 38.911 ], [ 27.0571, 38.9132 ], [ 27.0537, 38.9249 ], [ 27.0485, 38.929 ], [ 27.0529, 38.9279 ], [ 27.054, 38.931 ], [ 27.0501, 38.936 ], [ 27.0454, 38.9379 ], [ 27.0438, 38.941 ], [ 27.041, 38.9393 ], [ 27.0379, 38.9407 ], [ 27.0354, 38.9379 ], [ 27.0324, 38.9374 ], [ 27.0274, 38.9307 ], [ 27.0193, 38.929 ], [ 27.0163, 38.9257 ], [ 27.011, 38.9249 ], [ 27.0107, 38.9238 ], [ 27.0157, 38.9243 ], [ 27.0157, 38.9232 ], [ 27.0132, 38.9224 ], [ 27.0132, 38.9201 ], [ 27.0104, 38.9207 ], [ 27.0124, 38.9179 ], [ 27.0063, 38.919 ], [ 27.0063, 38.9162 ], [ 27.0171, 38.9182 ], [ 27.0185, 38.9137 ], [ 27.0082, 38.9129 ], [ 26.9846, 38.9193 ], [ 26.9837, 38.9215 ], [ 26.9749, 38.9268 ], [ 26.9696, 38.9268 ], [ 26.9701, 38.929 ], [ 26.9688, 38.9285 ], [ 26.964, 38.9338 ], [ 26.9571, 38.9376 ], [ 26.9579, 38.9393 ], [ 26.964, 38.9404 ], [ 26.9682, 38.9435 ], [ 26.9599, 38.9435 ], [ 26.9585, 38.9404 ], [ 26.9576, 38.9404 ], [ 26.9579, 38.943 ], [ 26.9903, 38.9721 ], [ 27.0082, 39.0005 ], [ 27.01, 39.0116 ], [ 27.0087, 39.0256 ], [ 26.9984, 39.0446 ], [ 26.9954, 39.0558 ], [ 26.995, 39.1099 ], [ 26.9983, 39.1241 ], [ 27.0211, 39.1579 ], [ 27.0229, 39.1628 ], [ 27.0219, 39.1708 ], [ 27.0188, 39.1753 ], [ 27.0091, 39.1819 ], [ 26.979, 39.1925 ], [ 26.9484, 39.1989 ], [ 26.9219, 39.2143 ], [ 26.9035, 39.2219 ], [ 26.8902, 39.2299 ] ] ] ] } },
{ "type": "Feature", "properties": { "GID_2": "TUR.41.5_1", "GID_0": "TUR", "COUNTRY": "Turkey", "GID_1": "TUR.41_1", "NAME_1": "Izmir", "NL_NAME_1": "NA", "NAME_2": "Beydağ", "VARNAME_2": "NA", "NL_NAME_2": "NA", "TYPE_2": "District", "ENGTYPE_2": "District", "CC_2": "NA", "HASC_2": "TR.IZ.BG" }, "geometry": { "type": "MultiPolygon", "coordinates": [ [ [ [ 28.202, 38.0219 ], [ 28.1921, 38.0267 ], [ 28.1812, 38.029 ], [ 28.1423, 38.0292 ], [ 28.1218, 38.0539 ], [ 28.1201, 38.0593 ], [ 28.1208, 38.0731 ], [ 28.1469, 38.115 ], [ 28.1521, 38.1473 ], [ 28.2379, 38.1462 ], [ 28.2495, 38.1449 ], [ 28.2621, 38.1406 ], [ 28.2803, 38.1313 ], [ 28.2936, 38.1169 ], [ 28.3067, 38.1069 ], [ 28.3304, 38.096 ], [ 28.3377, 38.0909 ], [ 28.3565, 38.0645 ], [ 28.3639, 38.0479 ], [ 28.3153, 38.0386 ], [ 28.257, 38.0201 ], [ 28.2286, 38.0186 ], [ 28.202, 38.0219 ] ] ] ] } },
{ "type": "Feature", "properties": { "GID_2": "TUR.41.6_1", "GID_0": "TUR", "COUNTRY": "Turkey", "GID_1": "TUR.41_1", "NAME_1": "Izmir", "NL_NAME_1": "NA", "NAME_2": "Bornova", "VARNAME_2": "NA", "NL_NAME_2": "NA", "TYPE_2": "District", "ENGTYPE_2": "District", "CC_2": "NA", "HASC_2": "TR.IZ.BO" }, "geometry": { "type": "MultiPolygon", "coordinates": [ [ [ [ 27.28, 38.5722 ], [ 27.3251, 38.5872 ], [ 27.3383, 38.5883 ], [ 27.3495, 38.5849 ], [ 27.3542, 38.5776 ], [ 27.3425, 38.5648 ], [ 27.3361, 38.5464 ], [ 27.3273, 38.5313 ], [ 27.327, 38.5264 ], [ 27.3291, 38.522 ], [ 27.3335, 38.5189 ], [ 27.3724, 38.5037 ], [ 27.3776, 38.498 ], [ 27.3776, 38.4912 ], [ 27.3655, 38.4712 ], [ 27.3466, 38.4557 ], [ 27.3105, 38.4413 ], [ 27.2939, 38.4379 ], [ 27.3026, 38.4147 ], [ 27.2984, 38.404 ], [ 27.2907, 38.3979 ], [ 27.2703, 38.388 ], [ 27.2488, 38.381 ], [ 27.1874, 38.3804 ], [ 27.1806, 38.3935 ], [ 27.1909, 38.4042 ], [ 27.1864, 38.4174 ], [ 27.1847, 38.4439 ], [ 27.1935, 38.4436 ], [ 27.1988, 38.4464 ], [ 27.2034, 38.4531 ], [ 27.2059, 38.4605 ], [ 27.2052, 38.4679 ], [ 27.2002, 38.4736 ], [ 27.1851, 38.4817 ], [ 27.1863, 38.4826 ], [ 27.1612, 38.4834 ], [ 27.1545, 38.4862 ], [ 27.1527, 38.4926 ], [ 27.1531, 38.5073 ], [ 27.1555, 38.5186 ], [ 27.1612, 38.5292 ], [ 27.1636, 38.5394 ], [ 27.1613, 38.545 ], [ 27.1839, 38.545 ], [ 27.2102, 38.55 ], [ 27.2205, 38.5554 ], [ 27.233, 38.5568 ], [ 27.28, 38.5722 ] ] ] ] } },
{ "type": "Feature", "properties": { "GID_2": "TUR.41.7_1", "GID_0": "TUR", "COUNTRY": "Turkey", "GID_1": "TUR.41_1", "NAME_1": "Izmir", "NL_NAME_1": "NA", "NAME_2": "Buca", "VARNAME_2": "NA", "NL_NAME_2": "NA", "TYPE_2": "District", "ENGTYPE_2": "District", "CC_2": "NA", "HASC_2": "TR.IZ.BU" }, "geometry": { "type": "MultiPolygon", "coordinates": [ [ [ [ 27.1806, 38.3935 ], [ 27.1874, 38.3804 ], [ 27.2488, 38.381 ], [ 27.2703, 38.388 ], [ 27.2931, 38.3998 ], [ 27.3211, 38.3814 ], [ 27.3395, 38.3672 ], [ 27.3586, 38.3447 ], [ 27.362, 38.3322 ], [ 27.3626, 38.3218 ], [ 27.3241, 38.3211 ], [ 27.2951, 38.3017 ], [ 27.2514, 38.2916 ], [ 27.2429, 38.2923 ], [ 27.2333, 38.2955 ], [ 27.2234, 38.3104 ], [ 27.2134, 38.3191 ], [ 27.2021, 38.3273 ], [ 27.1839, 38.336 ], [ 27.1539, 38.3542 ], [ 27.1508, 38.361 ], [ 27.1577, 38.3711 ], [ 27.162, 38.3843 ], [ 27.1806, 38.3935 ] ] ] ] } },
{ "type": "Feature", "properties": { "GID_2": "TUR.41.8_1", "GID_0": "TUR", "COUNTRY": "Turkey", "GID_1": "TUR.41_1", "NAME_1": "Izmir", "NL_NAME_1": "NA", "NAME_2": "Çeşme", "VARNAME_2": "NA", "NL_NAME_2": "NA", "TYPE_2": "District", "ENGTYPE_2": "District", "CC_2": "NA", "HASC_2": "TR.IZ.CE" }, "geometry": { "type": "MultiPolygon", "coordinates": [ [ [ [ 26.4385, 38.1882 ], [ 26.4404, 38.1862 ], [ 26.4396, 38.1826 ], [ 26.4371, 38.1829 ], [ 26.436, 38.1851 ], [ 26.4374, 38.1885 ], [ 26.4385, 38.1882 ] ] ], [ [ [ 26.4524, 38.201 ], [ 26.4482, 38.196 ], [ 26.4463, 38.1963 ], [ 26.4451, 38.1985 ], [ 26.4418, 38.1982 ], [ 26.4429, 38.2004 ], [ 26.4524, 38.201 ] ] ], [ [ [ 26.4338, 38.1985 ], [ 26.434, 38.1932 ], [ 26.4279, 38.1943 ], [ 26.4321, 38.1988 ], [ 26.4338, 38.1985 ] ] ], [ [ [ 26.4539, 38.3478 ], [ 26.4535, 38.3371 ], [ 26.4653, 38.3215 ], [ 26.4783, 38.3003 ], [ 26.482, 38.2895 ], [ 26.4828, 38.2807 ], [ 26.4832, 38.2475 ], [ 26.4814, 38.2239 ], [ 26.4757, 38.2133 ], [ 26.4596, 38.1992 ], [ 26.4618, 38.2032 ], [ 26.4607, 38.2051 ], [ 26.4585, 38.2051 ], [ 26.456, 38.2021 ], [ 26.4526, 38.201 ], [ 26.4513, 38.2024 ], [ 26.4507, 38.2093 ], [ 26.4446, 38.2096 ], [ 26.439, 38.2124 ], [ 26.4393, 38.2143 ], [ 26.444, 38.2168 ], [ 26.4418, 38.2188 ], [ 26.4324, 38.219 ], [ 26.4296, 38.2218 ], [ 26.4196, 38.2212 ], [ 26.4246, 38.2115 ], [ 26.4293, 38.2082 ], [ 26.4299, 38.2007 ], [ 26.4313, 38.199 ], [ 26.4299, 38.1982 ], [ 26.4229, 38.2018 ], [ 26.4215, 38.2046 ], [ 26.4176, 38.2057 ], [ 26.4143, 38.2101 ], [ 26.4112, 38.2088 ], [ 26.4096, 38.2132 ], [ 26.4024, 38.2168 ], [ 26.4001, 38.2165 ], [ 26.3937, 38.2215 ], [ 26.389, 38.2229 ], [ 26.3915, 38.2287 ], [ 26.3899, 38.2376 ], [ 26.3957, 38.2418 ], [ 26.4004, 38.2396 ], [ 26.3996, 38.2426 ], [ 26.4018, 38.2449 ], [ 26.4001, 38.2524 ], [ 26.3921, 38.2585 ], [ 26.391, 38.261 ], [ 26.3818, 38.2601 ], [ 26.3785, 38.2629 ], [ 26.3824, 38.2568 ], [ 26.3865, 38.254 ], [ 26.3857, 38.2501 ], [ 26.3874, 38.2474 ], [ 26.3796, 38.2449 ], [ 26.3782, 38.241 ], [ 26.374, 38.2399 ], [ 26.374, 38.2368 ], [ 26.3685, 38.2332 ], [ 26.3668, 38.2271 ], [ 26.3632, 38.2271 ], [ 26.3613, 38.2296 ], [ 26.3593, 38.2276 ], [ 26.3554, 38.2293 ], [ 26.3546, 38.2268 ], [ 26.3479, 38.229 ], [ 26.3426, 38.2287 ], [ 26.3388, 38.226 ], [ 26.3349, 38.2257 ], [ 26.3312, 38.2276 ], [ 26.3293, 38.231 ], [ 26.3238, 38.2304 ], [ 26.3126, 38.2388 ], [ 26.3068, 38.2401 ], [ 26.306, 38.2471 ], [ 26.3015, 38.2485 ], [ 26.3026, 38.2549 ], [ 26.301, 38.2571 ], [ 26.2979, 38.2593 ], [ 26.2935, 38.259 ], [ 26.2854, 38.2651 ], [ 26.2754, 38.2671 ], [ 26.2726, 38.2693 ], [ 26.2571, 38.2696 ], [ 26.2538, 38.2676 ], [ 26.2493, 38.2682 ], [ 26.2457, 38.2668 ], [ 26.2438, 38.2629 ], [ 26.2415, 38.2626 ], [ 26.2346, 38.2643 ], [ 26.2315, 38.2663 ], [ 26.2301, 38.2696 ], [ 26.2301, 38.2751 ], [ 26.2315, 38.2749 ], [ 26.2329, 38.2776 ], [ 26.2318, 38.2832 ], [ 26.2335, 38.2943 ], [ 26.2385, 38.2932 ], [ 26.2396, 38.2954 ], [ 26.2451, 38.2938 ], [ 26.2435, 38.2893 ], [ 26.2501, 38.2846 ], [ 26.2554, 38.2876 ], [ 26.2596, 38.2868 ], [ 26.2718, 38.2901 ], [ 26.2796, 38.2951 ], [ 26.2826, 38.3013 ], [ 26.2793, 38.3118 ], [ 26.279, 38.3193 ], [ 26.281, 38.3238 ], [ 26.2837, 38.3246 ], [ 26.2862, 38.3171 ], [ 26.2965, 38.3235 ], [ 26.2982, 38.3224 ], [ 26.2999, 38.3235 ], [ 26.301, 38.3201 ], [ 26.3026, 38.3207 ], [ 26.3007, 38.3226 ], [ 26.3015, 38.3249 ], [ 26.2949, 38.3288 ], [ 26.291, 38.3382 ], [ 26.2851, 38.3421 ], [ 26.2824, 38.3513 ], [ 26.2843, 38.361 ], [ 26.2826, 38.3743 ], [ 26.2843, 38.3746 ], [ 26.2846, 38.3765 ], [ 26.2885, 38.3671 ], [ 26.2965, 38.3607 ], [ 26.2968, 38.3568 ], [ 26.3001, 38.3551 ], [ 26.3026, 38.3551 ], [ 26.3046, 38.3574 ], [ 26.3021, 38.364 ], [ 26.3049, 38.3643 ], [ 26.3054, 38.3676 ], [ 26.3082, 38.3671 ], [ 26.3107, 38.3704 ], [ 26.3093, 38.3751 ], [ 26.3126, 38.3771 ], [ 26.316, 38.3763 ], [ 26.3168, 38.3737 ], [ 26.3149, 38.3699 ], [ 26.3157, 38.3662 ], [ 26.3146, 38.3643 ], [ 26.3171, 38.3646 ], [ 26.319, 38.3624 ], [ 26.3185, 38.3599 ], [ 26.3165, 38.3601 ], [ 26.3171, 38.3579 ], [ 26.3232, 38.3574 ], [ 26.3249, 38.3529 ], [ 26.3215, 38.3513 ], [ 26.3226, 38.346 ], [ 26.3185, 38.3476 ], [ 26.3157, 38.3462 ], [ 26.3182, 38.3407 ], [ 26.3163, 38.3393 ], [ 26.3137, 38.3404 ], [ 26.3118, 38.3387 ], [ 26.3168, 38.3368 ], [ 26.3188, 38.3301 ], [ 26.3257, 38.3257 ], [ 26.3332, 38.324 ], [ 26.3404, 38.3251 ], [ 26.3415, 38.3324 ], [ 26.3449, 38.3343 ], [ 26.346, 38.3226 ], [ 26.3443, 38.3199 ], [ 26.3532, 38.314 ], [ 26.3579, 38.3146 ], [ 26.3618, 38.3132 ], [ 26.3585, 38.3107 ], [ 26.3637, 38.3079 ], [ 26.3785, 38.309 ], [ 26.3843, 38.3146 ], [ 26.3849, 38.3171 ], [ 26.3829, 38.3201 ], [ 26.3854, 38.3221 ], [ 26.3857, 38.3282 ], [ 26.3882, 38.3315 ], [ 26.384, 38.3321 ], [ 26.3826, 38.3363 ], [ 26.3843, 38.3488 ], [ 26.3876, 38.3482 ], [ 26.3887, 38.3451 ], [ 26.3874, 38.3368 ], [ 26.3924, 38.3424 ], [ 26.3949, 38.3429 ], [ 26.3979, 38.3413 ], [ 26.3985, 38.3385 ], [ 26.401, 38.3365 ], [ 26.4021, 38.3326 ], [ 26.3951, 38.329 ], [ 26.3946, 38.3218 ], [ 26.3979, 38.3246 ], [ 26.4018, 38.3235 ], [ 26.4046, 38.3276 ], [ 26.4079, 38.3276 ], [ 26.4093, 38.3321 ], [ 26.4174, 38.3335 ], [ 26.419, 38.3307 ], [ 26.4243, 38.3335 ], [ 26.4251, 38.3363 ], [ 26.419, 38.3357 ], [ 26.4199, 38.3393 ], [ 26.4224, 38.3379 ], [ 26.4271, 38.3418 ], [ 26.4299, 38.3407 ], [ 26.4346, 38.346 ], [ 26.4396, 38.3432 ], [ 26.4418, 38.3443 ], [ 26.4432, 38.3482 ], [ 26.4504, 38.3471 ], [ 26.4518, 38.3485 ], [ 26.4504, 38.3521 ], [ 26.4554, 38.354 ], [ 26.4539, 38.3478 ] ] ], [ [ [ 26.209, 38.2971 ], [ 26.2113, 38.2929 ], [ 26.2107, 38.2904 ], [ 26.2088, 38.2912 ], [ 26.2074, 38.2949 ], [ 26.2071, 38.2979 ], [ 26.209, 38.2971 ] ] ] ] } },
{ "type": "Feature", "properties": { "GID_2": "TUR.41.9_1", "GID_0": "TUR", "COUNTRY": "Turkey", "GID_1": "TUR.41_1", "NAME_1": "Izmir", "NL_NAME_1": "NA", "NAME_2": "Çiğli", "VARNAME_2": "NA", "NL_NAME_2": "NA", "TYPE_2": "District", "ENGTYPE_2": "District", "CC_2": "NA", "HASC_2": "TR.IZ.CI" }, "geometry": { "type": "MultiPolygon", "coordinates": [ [ [ [ 26.974, 38.4401 ], [ 26.9746, 38.4382 ], [ 26.9721, 38.4343 ], [ 26.9688, 38.4354 ], [ 26.9721, 38.4374 ], [ 26.9713, 38.4407 ], [ 26.9724, 38.4424 ], [ 26.9743, 38.4421 ], [ 26.974, 38.4401 ] ] ], [ [ [ 26.924, 38.4479 ], [ 26.9268, 38.4468 ], [ 26.9276, 38.4449 ], [ 26.9238, 38.4457 ], [ 26.9226, 38.4482 ], [ 26.924, 38.4479 ] ] ], [ [ [ 26.8849, 38.5057 ], [ 26.8957, 38.5147 ], [ 26.9014, 38.5158 ], [ 26.9095, 38.5154 ], [ 26.932, 38.5081 ], [ 26.9704, 38.5077 ], [ 27.0143, 38.5119 ], [ 27.0273, 38.5187 ], [ 27.055, 38.529 ], [ 27.0739, 38.5316 ], [ 27.0742, 38.5095 ], [ 27.077, 38.4993 ], [ 27.0771, 38.4671 ], [ 27.0704, 38.4668 ], [ 27.0688, 38.464 ], [ 27.0674, 38.4643 ], [ 27.0685, 38.4621 ], [ 27.0732, 38.461 ], [ 27.0726, 38.4593 ], [ 27.0679, 38.4582 ], [ 27.0626, 38.4588 ], [ 27.0624, 38.4618 ], [ 27.0599, 38.4615 ], [ 27.0596, 38.4599 ], [ 27.0571, 38.4613 ], [ 27.0585, 38.4615 ], [ 27.0579, 38.464 ], [ 27.0557, 38.4629 ], [ 27.0524, 38.4654 ], [ 27.0504, 38.4637 ], [ 27.0418, 38.4657 ], [ 27.0388, 38.4635 ], [ 27.0338, 38.4674 ], [ 27.0321, 38.466 ], [ 27.0268, 38.4676 ], [ 27.026, 38.4651 ], [ 27.0354, 38.4632 ], [ 27.0207, 38.4643 ], [ 27.0185, 38.4618 ], [ 27.0179, 38.4649 ], [ 27.0163, 38.4651 ], [ 27.0138, 38.4632 ], [ 27.0163, 38.4607 ], [ 27.0113, 38.459 ], [ 27.0079, 38.4601 ], [ 27.0012, 38.4579 ], [ 26.9963, 38.4585 ], [ 26.9949, 38.4574 ], [ 26.9951, 38.454 ], [ 26.9904, 38.4529 ], [ 26.9874, 38.4493 ], [ 26.9879, 38.4535 ], [ 26.9904, 38.4557 ], [ 26.9899, 38.4574 ], [ 26.9879, 38.4568 ], [ 26.9879, 38.4549 ], [ 26.9851, 38.4565 ], [ 26.9846, 38.4549 ], [ 26.9865, 38.4535 ], [ 26.9843, 38.4529 ], [ 26.984, 38.4488 ], [ 26.9804, 38.4535 ], [ 26.9793, 38.4529 ], [ 26.9804, 38.4488 ], [ 26.9793, 38.4488 ], [ 26.9779, 38.4526 ], [ 26.9743, 38.4551 ], [ 26.9746, 38.4518 ], [ 26.9713, 38.4526 ], [ 26.9743, 38.4479 ], [ 26.9724, 38.4432 ], [ 26.9701, 38.4421 ], [ 26.966, 38.4479 ], [ 26.9629, 38.446 ], [ 26.9629, 38.4435 ], [ 26.9651, 38.4435 ], [ 26.9643, 38.4415 ], [ 26.9601, 38.4454 ], [ 26.9551, 38.4446 ], [ 26.9546, 38.4399 ], [ 26.9524, 38.4407 ], [ 26.9538, 38.4376 ], [ 26.9485, 38.4318 ], [ 26.9512, 38.4371 ], [ 26.9499, 38.4407 ], [ 26.9518, 38.4415 ], [ 26.9518, 38.4435 ], [ 26.9474, 38.4463 ], [ 26.946, 38.4451 ], [ 26.9446, 38.4465 ], [ 26.9438, 38.4443 ], [ 26.9415, 38.4449 ], [ 26.9418, 38.4463 ], [ 26.9393, 38.446 ], [ 26.9396, 38.449 ], [ 26.9376, 38.4485 ], [ 26.9385, 38.4507 ], [ 26.9315, 38.4543 ], [ 26.9276, 38.4535 ], [ 26.9274, 38.4551 ], [ 26.9226, 38.4521 ], [ 26.9235, 38.4546 ], [ 26.9226, 38.4557 ], [ 26.9196, 38.4532 ], [ 26.9204, 38.4568 ], [ 26.9238, 38.4568 ], [ 26.9238, 38.4599 ], [ 26.9207, 38.4604 ], [ 26.9235, 38.461 ], [ 26.9224, 38.4676 ], [ 26.914, 38.4771 ], [ 26.9129, 38.4813 ], [ 26.9088, 38.4865 ], [ 26.8843, 38.5032 ], [ 26.8849, 38.5057 ] ] ] ] } },
{ "type": "Feature", "properties": { "GID_2": "TUR.41.10_1", "GID_0": "TUR", "COUNTRY": "Turkey", "GID_1": "TUR.41_1", "NAME_1": "Izmir", "NL_NAME_1": "NA", "NAME_2": "Dikili", "VARNAME_2": "NA", "NL_NAME_2": "NA", "TYPE_2": "District", "ENGTYPE_2": "District", "CC_2": "NA", "HASC_2": "TR.IZ.DI" }, "geometry": { "type": "MultiPolygon", "coordinates": [ [ [ [ 26.8046, 38.9374 ], [ 26.8065, 38.9351 ], [ 26.8065, 38.934 ], [ 26.8049, 38.9338 ], [ 26.8035, 38.9357 ], [ 26.8035, 38.9376 ], [ 26.8046, 38.9374 ] ] ], [ [ [ 26.7993, 39.011 ], [ 26.7954, 39.0015 ], [ 26.7968, 38.9979 ], [ 26.7949, 38.9957 ], [ 26.7924, 38.9962 ], [ 26.791, 39.0004 ], [ 26.7935, 39.0051 ], [ 26.7929, 39.0085 ], [ 26.7968, 39.0113 ], [ 26.7993, 39.011 ] ] ], [ [ [ 26.7876, 39.0118 ], [ 26.7885, 39.006 ], [ 26.7868, 39.0021 ], [ 26.784, 39.0001 ], [ 26.7835, 39.0074 ], [ 26.7804, 39.0088 ], [ 26.7821, 39.0113 ], [ 26.7876, 39.0118 ] ] ], [ [ [ 26.8343, 38.9085 ], [ 26.8393, 38.904 ], [ 26.839, 38.901 ], [ 26.8363, 38.9012 ], [ 26.8326, 38.9043 ], [ 26.8326, 38.9087 ], [ 26.8343, 38.9085 ] ] ], [ [ [ 26.8121, 38.9271 ], [ 26.8163, 38.9224 ], [ 26.8257, 38.9229 ], [ 26.8265, 38.9165 ], [ 26.8218, 38.914 ], [ 26.8224, 38.911 ], [ 26.8179, 38.9113 ], [ 26.8146, 38.9149 ], [ 26.811, 38.9138 ], [ 26.8063, 38.9171 ], [ 26.8107, 38.9193 ], [ 26.8118, 38.9226 ], [ 26.8068, 38.9235 ], [ 26.8071, 38.9271 ], [ 26.8121, 38.9271 ] ] ], [ [ [ 26.7678, 39.1724 ], [ 26.7849, 39.1718 ], [ 26.7882, 39.1777 ], [ 26.7922, 39.1807 ], [ 26.8194, 39.1888 ], [ 26.8554, 39.213 ], [ 26.8767, 39.2219 ], [ 26.8902, 39.2299 ], [ 26.9035, 39.2219 ], [ 26.9219, 39.2143 ], [ 26.9484, 39.1989 ], [ 26.979, 39.1925 ], [ 27.0091, 39.1819 ], [ 27.0188, 39.1753 ], [ 27.0228, 39.1682 ], [ 27.0211, 39.1579 ], [ 26.9983, 39.1241 ], [ 26.995, 39.1099 ], [ 26.9954, 39.0558 ], [ 26.9984, 39.0446 ], [ 27.0087, 39.0256 ], [ 27.01, 39.0116 ], [ 27.0082, 39.0005 ], [ 26.9903, 38.9721 ], [ 26.9582, 38.9431 ], [ 26.9543, 38.9413 ], [ 26.9574, 38.9401 ], [ 26.9551, 38.9401 ], [ 26.9521, 38.9351 ], [ 26.9499, 38.9343 ], [ 26.9474, 38.9388 ], [ 26.9446, 38.939 ], [ 26.9357, 38.9365 ], [ 26.9357, 38.9332 ], [ 26.9393, 38.9293 ], [ 26.9396, 38.9257 ], [ 26.9338, 38.9276 ], [ 26.9332, 38.9329 ], [ 26.9304, 38.936 ], [ 26.9196, 38.9399 ], [ 26.9101, 38.934 ], [ 26.8932, 38.9296 ], [ 26.8901, 38.9274 ], [ 26.8907, 38.9254 ], [ 26.889, 38.9232 ], [ 26.8812, 38.9226 ], [ 26.8793, 38.9162 ], [ 26.8776, 38.9151 ], [ 26.8712, 38.9185 ], [ 26.8674, 38.9171 ], [ 26.8654, 38.9143 ], [ 26.8582, 38.9138 ], [ 26.8521, 38.9165 ], [ 26.8529, 38.919 ], [ 26.8574, 38.9221 ], [ 26.8535, 38.9246 ], [ 26.8524, 38.9321 ], [ 26.8454, 38.9351 ], [ 26.8293, 38.9332 ], [ 26.8251, 38.9357 ], [ 26.8204, 38.9362 ], [ 26.816, 38.941 ], [ 26.8149, 38.9493 ], [ 26.8115, 38.9526 ], [ 26.8076, 38.9538 ], [ 26.8024, 38.9501 ], [ 26.7996, 38.9529 ], [ 26.7962, 38.9618 ], [ 26.7965, 38.9637 ], [ 26.7996, 38.9643 ], [ 26.8004, 38.9685 ], [ 26.7993, 38.9724 ], [ 26.8004, 38.974 ], [ 26.796, 38.9824 ], [ 26.7968, 38.9868 ], [ 26.7988, 38.9888 ], [ 26.7971, 38.9904 ], [ 26.7974, 38.9962 ], [ 26.801, 38.999 ], [ 26.7999, 39.0032 ], [ 26.8021, 39.0101 ], [ 26.8043, 39.0107 ], [ 26.8079, 39.0157 ], [ 26.8124, 39.0157 ], [ 26.8154, 39.0201 ], [ 26.816, 39.026 ], [ 26.8115, 39.0235 ], [ 26.8115, 39.0199 ], [ 26.7988, 39.0151 ], [ 26.799, 39.0221 ], [ 26.7954, 39.0226 ], [ 26.7949, 39.024 ], [ 26.7996, 39.0285 ], [ 26.799, 39.0324 ], [ 26.8037, 39.0346 ], [ 26.8051, 39.0388 ], [ 26.8121, 39.0374 ], [ 26.8126, 39.0418 ], [ 26.8179, 39.0368 ], [ 26.8232, 39.0376 ], [ 26.8293, 39.0407 ], [ 26.8304, 39.0438 ], [ 26.8382, 39.0451 ], [ 26.8393, 39.0482 ], [ 26.8474, 39.0521 ], [ 26.851, 39.0579 ], [ 26.8565, 39.0563 ], [ 26.8632, 39.0588 ], [ 26.8682, 39.0643 ], [ 26.874, 39.0629 ], [ 26.8804, 39.0643 ], [ 26.8865, 39.0682 ], [ 26.8857, 39.0699 ], [ 26.8876, 39.0754 ], [ 26.8826, 39.0893 ], [ 26.8768, 39.0982 ], [ 26.8776, 39.1001 ], [ 26.8751, 39.1007 ], [ 26.8685, 39.1071 ], [ 26.8668, 39.1104 ], [ 26.8676, 39.1121 ], [ 26.864, 39.1118 ], [ 26.8626, 39.1149 ], [ 26.8596, 39.1151 ], [ 26.8546, 39.119 ], [ 26.8504, 39.1282 ], [ 26.8357, 39.1421 ], [ 26.8249, 39.1476 ], [ 26.8174, 39.154 ], [ 26.8068, 39.1587 ], [ 26.791, 39.1629 ], [ 26.7679, 39.166 ], [ 26.7646, 39.1732 ], [ 26.7678, 39.1724 ] ] ] ] } },
{ "type": "Feature", "properties": { "GID_2": "TUR.41.11_1", "GID_0": "TUR", "COUNTRY": "Turkey", "GID_1": "TUR.41_1", "NAME_1": "Izmir", "NL_NAME_1": "NA", "NAME_2": "Foça", "VARNAME_2": "NA", "NL_NAME_2": "NA", "TYPE_2": "District", "ENGTYPE_2": "District", "CC_2": "NA", "HASC_2": "TR.IZ.FO" }, "geometry": { "type": "MultiPolygon", "coordinates": [ [ [ [ 26.726, 38.6768 ], [ 26.7296, 38.674 ], [ 26.7279, 38.6701 ], [ 26.7232, 38.6746 ], [ 26.726, 38.6768 ] ] ], [ [ [ 26.922, 38.725 ], [ 26.9263, 38.7179 ], [ 26.945, 38.696 ], [ 26.9488, 38.6826 ], [ 26.9467, 38.6717 ], [ 26.93, 38.6464 ], [ 26.9178, 38.6377 ], [ 26.888, 38.6272 ], [ 26.8746, 38.6276 ], [ 26.8551, 38.6341 ], [ 26.8421, 38.6324 ], [ 26.8326, 38.6258 ], [ 26.822, 38.6099 ], [ 26.8088, 38.5969 ], [ 26.8063, 38.6015 ], [ 26.8004, 38.5993 ], [ 26.8029, 38.6035 ], [ 26.8012, 38.6037 ], [ 26.8015, 38.6087 ], [ 26.7999, 38.611 ], [ 26.7915, 38.6107 ], [ 26.7876, 38.6143 ], [ 26.779, 38.6174 ], [ 26.776, 38.6165 ], [ 26.7751, 38.6124 ], [ 26.7693, 38.6165 ], [ 26.7665, 38.6165 ], [ 26.766, 38.6146 ], [ 26.7649, 38.616 ], [ 26.7621, 38.6146 ], [ 26.7565, 38.616 ], [ 26.7585, 38.6199 ], [ 26.7563, 38.6235 ], [ 26.7571, 38.626 ], [ 26.7546, 38.6285 ], [ 26.7599, 38.6326 ], [ 26.7643, 38.6332 ], [ 26.7646, 38.6376 ], [ 26.7699, 38.6351 ], [ 26.7649, 38.6407 ], [ 26.7496, 38.6343 ], [ 26.7435, 38.6376 ], [ 26.7435, 38.644 ], [ 26.7421, 38.6457 ], [ 26.7363, 38.6443 ], [ 26.7326, 38.6476 ], [ 26.7321, 38.6493 ], [ 26.7346, 38.6515 ], [ 26.7337, 38.6538 ], [ 26.7274, 38.6549 ], [ 26.7257, 38.6496 ], [ 26.7224, 38.6515 ], [ 26.7232, 38.6563 ], [ 26.7282, 38.6554 ], [ 26.7343, 38.6599 ], [ 26.734, 38.6671 ], [ 26.7418, 38.6632 ], [ 26.7407, 38.6662 ], [ 26.7426, 38.6662 ], [ 26.7421, 38.6688 ], [ 26.7446, 38.6693 ], [ 26.7449, 38.6643 ], [ 26.7538, 38.6651 ], [ 26.7504, 38.669 ], [ 26.7549, 38.6721 ], [ 26.7482, 38.6774 ], [ 26.739, 38.6779 ], [ 26.7376, 38.6757 ], [ 26.7307, 38.6746 ], [ 26.7371, 38.679 ], [ 26.7393, 38.6782 ], [ 26.741, 38.681 ], [ 26.7396, 38.6835 ], [ 26.7371, 38.6824 ], [ 26.7335, 38.6857 ], [ 26.7363, 38.6868 ], [ 26.7363, 38.6885 ], [ 26.7318, 38.6904 ], [ 26.7315, 38.6929 ], [ 26.7282, 38.6954 ], [ 26.7313, 38.6976 ], [ 26.7313, 38.7018 ], [ 26.7326, 38.7026 ], [ 26.7285, 38.7129 ], [ 26.729, 38.716 ], [ 26.731, 38.7151 ], [ 26.7318, 38.7163 ], [ 26.7324, 38.7196 ], [ 26.7285, 38.7193 ], [ 26.7265, 38.7215 ], [ 26.7288, 38.7232 ], [ 26.7279, 38.7263 ], [ 26.7293, 38.7276 ], [ 26.7321, 38.7274 ], [ 26.734, 38.7304 ], [ 26.7374, 38.7318 ], [ 26.7432, 38.7315 ], [ 26.7415, 38.7363 ], [ 26.739, 38.7365 ], [ 26.7401, 38.7418 ], [ 26.7521, 38.7399 ], [ 26.7538, 38.7371 ], [ 26.7593, 38.7363 ], [ 26.7588, 38.7393 ], [ 26.7613, 38.7401 ], [ 26.7637, 38.7404 ], [ 26.7657, 38.7376 ], [ 26.7674, 38.7376 ], [ 26.7668, 38.7418 ], [ 26.7682, 38.7426 ], [ 26.7704, 38.7418 ], [ 26.7685, 38.7379 ], [ 26.7693, 38.7349 ], [ 26.7738, 38.7393 ], [ 26.7774, 38.7388 ], [ 26.7793, 38.7401 ], [ 26.7787, 38.7376 ], [ 26.7804, 38.7371 ], [ 26.7821, 38.7393 ], [ 26.7846, 38.7393 ], [ 26.7838, 38.7424 ], [ 26.7865, 38.7438 ], [ 26.7871, 38.7471 ], [ 26.7904, 38.7457 ], [ 26.7904, 38.7485 ], [ 26.7926, 38.7487 ], [ 26.7946, 38.7463 ], [ 26.7968, 38.7463 ], [ 26.7976, 38.7487 ], [ 26.8021, 38.7507 ], [ 26.8107, 38.7518 ], [ 26.8146, 38.7535 ], [ 26.8149, 38.7562 ], [ 26.8185, 38.7579 ], [ 26.819, 38.7599 ], [ 26.824, 38.7624 ], [ 26.8312, 38.7613 ], [ 26.8329, 38.7551 ], [ 26.8374, 38.7532 ], [ 26.8374, 38.7515 ], [ 26.834, 38.7518 ], [ 26.8321, 38.7485 ], [ 26.8326, 38.7449 ], [ 26.836, 38.7421 ], [ 26.839, 38.7415 ], [ 26.8443, 38.746 ], [ 26.8504, 38.7485 ], [ 26.8515, 38.7501 ], [ 26.8501, 38.7513 ], [ 26.8582, 38.7532 ], [ 26.8657, 38.7443 ], [ 26.8729, 38.7407 ], [ 26.8771, 38.7351 ], [ 26.8849, 38.7324 ], [ 26.8946, 38.7337 ], [ 26.8988, 38.7382 ], [ 26.9004, 38.744 ], [ 26.922, 38.725 ] ] ], [ [ [ 26.7346, 38.7335 ], [ 26.7343, 38.7318 ], [ 26.7318, 38.7326 ], [ 26.7329, 38.734 ], [ 26.7346, 38.7335 ] ] ], [ [ [ 26.7185, 38.6779 ], [ 26.7182, 38.676 ], [ 26.7135, 38.6732 ], [ 26.7115, 38.674 ], [ 26.7112, 38.6754 ], [ 26.7135, 38.6768 ], [ 26.7185, 38.6779 ] ] ], [ [ [ 26.7096, 38.7012 ], [ 26.7171, 38.6935 ], [ 26.7251, 38.6932 ], [ 26.7257, 38.6907 ], [ 26.7229, 38.6868 ], [ 26.7201, 38.6871 ], [ 26.7115, 38.6926 ], [ 26.7088, 38.6918 ], [ 26.7074, 38.6988 ], [ 26.709, 38.7029 ], [ 26.7096, 38.7012 ] ] ], [ [ [ 26.7093, 38.716 ], [ 26.7099, 38.7135 ], [ 26.7079, 38.711 ], [ 26.7076, 38.7135 ], [ 26.7093, 38.716 ] ] ] ] } },
{ "type": "Feature", "properties": { "GID_2": "TUR.41.12_1", "GID_0": "TUR", "COUNTRY": "Turkey", "GID_1": "TUR.41_1", "NAME_1": "Izmir", "NL_NAME_1": "NA", "NAME_2": "Gaziemir", "VARNAME_2": "NA", "NL_NAME_2": "NA", "TYPE_2": "District", "ENGTYPE_2": "District", "CC_2": "NA", "HASC_2": "TR.IZ.GA" }, "geometry": { "type": "MultiPolygon", "coordinates": [ [ [ [ 27.1548, 38.3536 ], [ 27.1839, 38.336 ], [ 27.2021, 38.3273 ], [ 27.2134, 38.3191 ], [ 27.2234, 38.3104 ], [ 27.2333, 38.2955 ], [ 27.2045, 38.3037 ], [ 27.1784, 38.2989 ], [ 27.1607, 38.2981 ], [ 27.1086, 38.2998 ], [ 27.0934, 38.3046 ], [ 27.0651, 38.3244 ], [ 27.0675, 38.3273 ], [ 27.1113, 38.3273 ], [ 27.1245, 38.3366 ], [ 27.1548, 38.3536 ] ] ] ] } },
{ "type": "Feature", "properties": { "GID_2": "TUR.41.13_1", "GID_0": "TUR", "COUNTRY": "Turkey", "GID_1": "TUR.41_1", "NAME_1": "Izmir", "NL_NAME_1": "NA", "NAME_2": "Güzelbahçe", "VARNAME_2": "NA", "NL_NAME_2": "NA", "TYPE_2": "District", "ENGTYPE_2": "District", "CC_2": "NA", "HASC_2": "TR.IZ.GU" }, "geometry": { "type": "MultiPolygon", "coordinates": [ [ [ [ 26.9336, 38.3838 ], [ 26.9443, 38.3535 ], [ 26.9543, 38.3429 ], [ 26.9636, 38.3373 ], [ 26.9924, 38.336 ], [ 26.9986, 38.3322 ], [ 26.991, 38.3299 ], [ 26.9793, 38.3228 ], [ 26.9567, 38.3003 ], [ 26.9102, 38.2729 ], [ 26.8987, 38.288 ], [ 26.8868, 38.2965 ], [ 26.8565, 38.3074 ], [ 26.824, 38.311 ], [ 26.8161, 38.3158 ], [ 26.814, 38.3204 ], [ 26.814, 38.3279 ], [ 26.825, 38.3488 ], [ 26.829, 38.3682 ], [ 26.8376, 38.3713 ], [ 26.8546, 38.374 ], [ 26.8624, 38.3737 ], [ 26.866, 38.376 ], [ 26.8674, 38.3746 ], [ 26.881, 38.3768 ], [ 26.8846, 38.379 ], [ 26.9035, 38.3796 ], [ 26.9221, 38.3849 ], [ 26.9336, 38.3838 ] ] ] ] } },
{ "type": "Feature", "properties": { "GID_2": "TUR.41.14_1", "GID_0": "TUR", "COUNTRY": "Turkey", "GID_1": "TUR.41_1", "NAME_1": "Izmir", "NL_NAME_1": "NA", "NAME_2": "Karaburun", "VARNAME_2": "NA", "NL_NAME_2": "NA", "TYPE_2": "District", "ENGTYPE_2": "District", "CC_2": "NA", "HASC_2": "TR.IZ.KB" }, "geometry": { "type": "MultiPolygon", "coordinates": [ [ [ [ 26.3087, 38.4221 ], [ 26.3096, 38.4182 ], [ 26.3151, 38.4179 ], [ 26.3143, 38.4149 ], [ 26.3099, 38.4151 ], [ 26.3079, 38.4235 ], [ 26.3087, 38.4221 ] ] ], [ [ [ 26.3865, 38.4357 ], [ 26.3882, 38.4329 ], [ 26.3854, 38.4307 ], [ 26.3896, 38.4254 ], [ 26.3896, 38.4221 ], [ 26.3854, 38.4221 ], [ 26.3813, 38.4235 ], [ 26.3796, 38.4257 ], [ 26.3762, 38.4249 ], [ 26.3757, 38.4274 ], [ 26.3729, 38.4271 ], [ 26.3735, 38.4318 ], [ 26.3818, 38.4332 ], [ 26.3815, 38.4351 ], [ 26.3838, 38.4362 ], [ 26.3865, 38.4357 ] ] ], [ [ [ 26.3699, 38.4368 ], [ 26.374, 38.434 ], [ 26.3682, 38.4271 ], [ 26.3665, 38.4296 ], [ 26.3674, 38.4374 ], [ 26.3696, 38.4379 ], [ 26.3699, 38.4368 ] ] ], [ [ [ 26.3601, 38.4557 ], [ 26.3615, 38.4529 ], [ 26.3601, 38.4485 ], [ 26.3621, 38.4485 ], [ 26.3635, 38.4443 ], [ 26.3613, 38.4396 ], [ 26.3582, 38.4407 ], [ 26.3574, 38.4371 ], [ 26.3587, 38.4346 ], [ 26.3557, 38.4335 ], [ 26.3579, 38.4304 ], [ 26.3574, 38.4282 ], [ 26.3532, 38.4249 ], [ 26.349, 38.4276 ], [ 26.3513, 38.4318 ], [ 26.3493, 38.4299 ], [ 26.3476, 38.4304 ], [ 26.3457, 38.4271 ], [ 26.3412, 38.4307 ], [ 26.339, 38.4229 ], [ 26.3371, 38.4276 ], [ 26.3346, 38.4285 ], [ 26.3357, 38.4229 ], [ 26.3315, 38.4226 ], [ 26.3268, 38.4285 ], [ 26.3293, 38.4343 ], [ 26.3276, 38.4374 ], [ 26.3254, 38.4376 ], [ 26.3251, 38.4413 ], [ 26.3276, 38.4415 ], [ 26.3285, 38.444 ], [ 26.3315, 38.4457 ], [ 26.3368, 38.4454 ], [ 26.3415, 38.4474 ], [ 26.3493, 38.4549 ], [ 26.3601, 38.4557 ] ] ], [ [ [ 26.597, 38.459 ], [ 26.5917, 38.4558 ], [ 26.5881, 38.4501 ], [ 26.5746, 38.4529 ], [ 26.5532, 38.4603 ], [ 26.534, 38.4621 ], [ 26.5027, 38.4606 ], [ 26.4799, 38.4549 ], [ 26.4757, 38.459 ], [ 26.4693, 38.4576 ], [ 26.464, 38.4635 ], [ 26.4599, 38.4635 ], [ 26.4538, 38.4688 ], [ 26.4482, 38.4701 ], [ 26.4424, 38.4754 ], [ 26.4299, 38.4776 ], [ 26.4196, 38.476 ], [ 26.4188, 38.4726 ], [ 26.416, 38.4718 ], [ 26.4138, 38.4688 ], [ 26.4138, 38.4646 ], [ 26.416, 38.4618 ], [ 26.4143, 38.4615 ], [ 26.4129, 38.4568 ], [ 26.4093, 38.4551 ], [ 26.4049, 38.4562 ], [ 26.404, 38.4504 ], [ 26.4001, 38.4454 ], [ 26.3929, 38.4465 ], [ 26.3904, 38.4576 ], [ 26.391, 38.4632 ], [ 26.3921, 38.4657 ], [ 26.3957, 38.4668 ], [ 26.3988, 38.4735 ], [ 26.4043, 38.4782 ], [ 26.4032, 38.4821 ], [ 26.4046, 38.4868 ], [ 26.4099, 38.4921 ], [ 26.4118, 38.4921 ], [ 26.4121, 38.4943 ], [ 26.4093, 38.4949 ], [ 26.4068, 38.4982 ], [ 26.4032, 38.4968 ], [ 26.404, 38.5015 ], [ 26.4015, 38.5018 ], [ 26.4007, 38.5054 ], [ 26.3963, 38.5035 ], [ 26.389, 38.5051 ], [ 26.389, 38.5065 ], [ 26.3946, 38.5076 ], [ 26.3924, 38.5096 ], [ 26.3935, 38.514 ], [ 26.3896, 38.5163 ], [ 26.3918, 38.5193 ], [ 26.3899, 38.5218 ], [ 26.3849, 38.5226 ], [ 26.3813, 38.519 ], [ 26.3771, 38.5235 ], [ 26.3757, 38.5288 ], [ 26.3715, 38.5299 ], [ 26.3732, 38.5393 ], [ 26.3751, 38.5418 ], [ 26.3768, 38.5401 ], [ 26.3757, 38.5371 ], [ 26.3774, 38.5368 ], [ 26.3774, 38.534 ], [ 26.3796, 38.5326 ], [ 26.3785, 38.5296 ], [ 26.3807, 38.5235 ], [ 26.3807, 38.544 ], [ 26.3738, 38.5474 ], [ 26.3749, 38.5504 ], [ 26.3685, 38.5554 ], [ 26.3685, 38.5568 ], [ 26.371, 38.5576 ], [ 26.3701, 38.5604 ], [ 26.3654, 38.5626 ], [ 26.3635, 38.5621 ], [ 26.3599, 38.5671 ], [ 26.3624, 38.5674 ], [ 26.3604, 38.5699 ], [ 26.3604, 38.5774 ], [ 26.359, 38.5782 ], [ 26.3593, 38.5812 ], [ 26.3613, 38.5824 ], [ 26.3607, 38.5846 ], [ 26.3624, 38.5851 ], [ 26.3621, 38.5901 ], [ 26.3596, 38.5976 ], [ 26.3599, 38.6065 ], [ 26.3587, 38.609 ], [ 26.3563, 38.6096 ], [ 26.3538, 38.6168 ], [ 26.3568, 38.6188 ], [ 26.3579, 38.6218 ], [ 26.3563, 38.6251 ], [ 26.3563, 38.6318 ], [ 26.3529, 38.6387 ], [ 26.3543, 38.6468 ], [ 26.3585, 38.6515 ], [ 26.3607, 38.6599 ], [ 26.3682, 38.6624 ], [ 26.369, 38.6649 ], [ 26.3793, 38.664 ], [ 26.3832, 38.6671 ], [ 26.3868, 38.6654 ], [ 26.3937, 38.6679 ], [ 26.3974, 38.6674 ], [ 26.4168, 38.681 ], [ 26.4268, 38.6793 ], [ 26.4321, 38.6726 ], [ 26.4376, 38.671 ], [ 26.4379, 38.6724 ], [ 26.4424, 38.6738 ], [ 26.4476, 38.6718 ], [ 26.4549, 38.6729 ], [ 26.4657, 38.6696 ], [ 26.4743, 38.6751 ], [ 26.4796, 38.6718 ], [ 26.4813, 38.6688 ], [ 26.4854, 38.6676 ], [ 26.4854, 38.6651 ], [ 26.4893, 38.664 ], [ 26.4893, 38.6621 ], [ 26.4915, 38.664 ], [ 26.4926, 38.6604 ], [ 26.4999, 38.6576 ], [ 26.5001, 38.6543 ], [ 26.509, 38.6507 ], [ 26.5126, 38.6474 ], [ 26.5157, 38.6479 ], [ 26.5171, 38.6518 ], [ 26.5187, 38.6499 ], [ 26.5204, 38.651 ], [ 26.5235, 38.6501 ], [ 26.524, 38.6471 ], [ 26.5282, 38.6443 ], [ 26.5285, 38.6421 ], [ 26.5274, 38.641 ], [ 26.5232, 38.6418 ], [ 26.5218, 38.6401 ], [ 26.5254, 38.634 ], [ 26.5232, 38.6307 ], [ 26.5326, 38.6268 ], [ 26.5332, 38.6249 ], [ 26.5307, 38.6238 ], [ 26.5324, 38.6224 ], [ 26.5362, 38.6232 ], [ 26.5404, 38.6149 ], [ 26.5451, 38.6113 ], [ 26.546, 38.6074 ], [ 26.5507, 38.6015 ], [ 26.5571, 38.6049 ], [ 26.5593, 38.6015 ], [ 26.5624, 38.6026 ], [ 26.5624, 38.5938 ], [ 26.5654, 38.5921 ], [ 26.5649, 38.589 ], [ 26.5674, 38.5832 ], [ 26.5663, 38.5815 ], [ 26.5679, 38.581 ], [ 26.5671, 38.5743 ], [ 26.5657, 38.5735 ], [ 26.5676, 38.5715 ], [ 26.5668, 38.5693 ], [ 26.5699, 38.5679 ], [ 26.5679, 38.5657 ], [ 26.5693, 38.5596 ], [ 26.579, 38.5551 ], [ 26.5854, 38.5488 ], [ 26.5921, 38.5465 ], [ 26.5954, 38.5412 ], [ 26.5996, 38.5412 ], [ 26.5999, 38.5385 ], [ 26.6018, 38.539 ], [ 26.6029, 38.5351 ], [ 26.6074, 38.5318 ], [ 26.6132, 38.5296 ], [ 26.6176, 38.5296 ], [ 26.6188, 38.5321 ], [ 26.6201, 38.5304 ], [ 26.6249, 38.5315 ], [ 26.6254, 38.5276 ], [ 26.6238, 38.5246 ], [ 26.6249, 38.5201 ], [ 26.6279, 38.5182 ], [ 26.626, 38.516 ], [ 26.6299, 38.5174 ], [ 26.6332, 38.5115 ], [ 26.6321, 38.4993 ], [ 26.6404, 38.4765 ], [ 26.6413, 38.4693 ], [ 26.6399, 38.4665 ], [ 26.6304, 38.4629 ], [ 26.6279, 38.4685 ], [ 26.6207, 38.4724 ], [ 26.6115, 38.4715 ], [ 26.609, 38.4707 ], [ 26.6087, 38.469 ], [ 26.6046, 38.4704 ], [ 26.5879, 38.4704 ], [ 26.5912, 38.4685 ], [ 26.5979, 38.4679 ], [ 26.5976, 38.4663 ], [ 26.5896, 38.4618 ], [ 26.596, 38.459 ], [ 26.5976, 38.4618 ], [ 26.6013, 38.4607 ], [ 26.597, 38.459 ] ] ], [ [ [ 26.5224, 38.6535 ], [ 26.5249, 38.6524 ], [ 26.5268, 38.6499 ], [ 26.5213, 38.654 ], [ 26.5224, 38.6535 ] ] ], [ [ [ 26.519, 38.661 ], [ 26.5199, 38.6579 ], [ 26.5182, 38.6568 ], [ 26.5132, 38.6563 ], [ 26.5104, 38.6576 ], [ 26.516, 38.6632 ], [ 26.5187, 38.6635 ], [ 26.519, 38.661 ] ] ] ] } },
{ "type": "Feature", "properties": { "GID_2": "TUR.41.15_1", "GID_0": "TUR", "COUNTRY": "Turkey", "GID_1": "TUR.41_1", "NAME_1": "Izmir", "NL_NAME_1": "NA", "NAME_2": "Karşıyaka", "VARNAME_2": "NA", "NL_NAME_2": "NA", "TYPE_2": "District", "ENGTYPE_2": "District", "CC_2": "NA", "HASC_2": "TR.IZ.KA" }, "geometry": { "type": "MultiPolygon", "coordinates": [ [ [ [ 27.1613, 38.545 ], [ 27.1636, 38.5394 ], [ 27.1612, 38.5292 ], [ 27.1555, 38.5186 ], [ 27.1531, 38.5073 ], [ 27.1527, 38.4926 ], [ 27.1545, 38.4862 ], [ 27.1612, 38.4834 ], [ 27.1863, 38.4826 ], [ 27.1851, 38.4817 ], [ 27.2002, 38.4736 ], [ 27.2052, 38.4679 ], [ 27.2059, 38.4605 ], [ 27.2034, 38.4531 ], [ 27.1988, 38.4464 ], [ 27.1935, 38.4436 ], [ 27.1816, 38.444 ], [ 27.171, 38.4484 ], [ 27.1637, 38.4618 ], [ 27.159, 38.4668 ], [ 27.149, 38.4643 ], [ 27.1349, 38.4649 ], [ 27.136, 38.4626 ], [ 27.134, 38.461 ], [ 27.1318, 38.4629 ], [ 27.1324, 38.4593 ], [ 27.1279, 38.4607 ], [ 27.1254, 38.4568 ], [ 27.1193, 38.4546 ], [ 27.1185, 38.4526 ], [ 27.1126, 38.4504 ], [ 27.1118, 38.4487 ], [ 27.0938, 38.4532 ], [ 27.0821, 38.4649 ], [ 27.0771, 38.4671 ], [ 27.077, 38.4993 ], [ 27.0742, 38.5095 ], [ 27.0739, 38.5316 ], [ 27.0874, 38.544 ], [ 27.0976, 38.5507 ], [ 27.1167, 38.5557 ], [ 27.1471, 38.5461 ], [ 27.1613, 38.545 ] ] ] ] } },
{ "type": "Feature", "properties": { "GID_2": "TUR.41.16_1", "GID_0": "TUR", "COUNTRY": "Turkey", "GID_1": "TUR.41_1", "NAME_1": "Izmir", "NL_NAME_1": "NA", "NAME_2": "Kemalpaşa", "VARNAME_2": "NA", "NL_NAME_2": "NA", "TYPE_2": "District", "ENGTYPE_2": "District", "CC_2": "NA", "HASC_2": "TR.IZ.KP" }, "geometry": { "type": "MultiPolygon", "coordinates": [ [ [ [ 27.7183, 38.4542 ], [ 27.711, 38.4271 ], [ 27.689, 38.4042 ], [ 27.6737, 38.3807 ], [ 27.6709, 38.373 ], [ 27.6682, 38.3545 ], [ 27.6624, 38.346 ], [ 27.6413, 38.3356 ], [ 27.6077, 38.3238 ], [ 27.5621, 38.3179 ], [ 27.5319, 38.3061 ], [ 27.5025, 38.2888 ], [ 27.4728, 38.2801 ], [ 27.4457, 38.2945 ], [ 27.427, 38.3021 ], [ 27.3975, 38.3189 ], [ 27.387, 38.321 ], [ 27.3626, 38.3218 ], [ 27.362, 38.3322 ], [ 27.3586, 38.3447 ], [ 27.3395, 38.3672 ], [ 27.3211, 38.3814 ], [ 27.2931, 38.3998 ], [ 27.2984, 38.404 ], [ 27.3026, 38.4147 ], [ 27.2939, 38.4379 ], [ 27.3105, 38.4413 ], [ 27.3466, 38.4557 ], [ 27.3655, 38.4712 ], [ 27.3776, 38.4912 ], [ 27.3776, 38.498 ], [ 27.3724, 38.5037 ], [ 27.3335, 38.5189 ], [ 27.3291, 38.522 ], [ 27.327, 38.5264 ], [ 27.3273, 38.5313 ], [ 27.3361, 38.5464 ], [ 27.3425, 38.5648 ], [ 27.3542, 38.5776 ], [ 27.4063, 38.5766 ], [ 27.4309, 38.5688 ], [ 27.4579, 38.5635 ], [ 27.4784, 38.5514 ], [ 27.5426, 38.5009 ], [ 27.5654, 38.4863 ], [ 27.5955, 38.4748 ], [ 27.6441, 38.4625 ], [ 27.6909, 38.4599 ], [ 27.7183, 38.4542 ] ] ] ] } },
{ "type": "Feature", "properties": { "GID_2": "TUR.41.17_1", "GID_0": "TUR", "COUNTRY": "Turkey", "GID_1": "TUR.41_1", "NAME_1": "Izmir", "NL_NAME_1": "NA", "NAME_2": "Kınık", "VARNAME_2": "NA", "NL_NAME_2": "NA", "TYPE_2": "District", "ENGTYPE_2": "District", "CC_2": "NA", "HASC_2": "TR.IZ.KI" }, "geometry": { "type": "MultiPolygon", "coordinates": [ [ [ [ 27.3475, 38.921 ], [ 27.3225, 38.961 ], [ 27.3138, 38.9702 ], [ 27.3001, 38.9799 ], [ 27.2783, 38.9889 ], [ 27.2664, 38.9959 ], [ 27.2362, 39.0186 ], [ 27.2248, 39.0301 ], [ 27.221, 39.0383 ], [ 27.2195, 39.0501 ], [ 27.2196, 39.0833 ], [ 27.2221, 39.0978 ], [ 27.2289, 39.1068 ], [ 27.2456, 39.1169 ], [ 27.2613, 39.1315 ], [ 27.2966, 39.1458 ], [ 27.3206, 39.1501 ], [ 27.3417, 39.1572 ], [ 27.3526, 39.1591 ], [ 27.4373, 39.1606 ], [ 27.471, 39.1719 ], [ 27.5009, 39.1266 ], [ 27.5044, 39.1177 ], [ 27.5059, 39.0985 ], [ 27.5054, 39.0199 ], [ 27.4904, 39.0083 ], [ 27.4767, 39.0057 ], [ 27.4628, 38.9983 ], [ 27.4516, 38.9884 ], [ 27.4425, 38.9746 ], [ 27.4339, 38.967 ], [ 27.4252, 38.9634 ], [ 27.4016, 38.9593 ], [ 27.3875, 38.952 ], [ 27.3746, 38.9398 ], [ 27.37, 38.9268 ], [ 27.3475, 38.921 ] ] ] ] } },
{ "type": "Feature", "properties": { "GID_2": "TUR.41.18_1", "GID_0": "TUR", "COUNTRY": "Turkey", "GID_1": "TUR.41_1", "NAME_1": "Izmir", "NL_NAME_1": "NA", "NAME_2": "Kiraz", "VARNAME_2": "NA", "NL_NAME_2": "NA", "TYPE_2": "District", "ENGTYPE_2": "District", "CC_2": "NA", "HASC_2": "TR.IZ.KR" }, "geometry": { "type": "MultiPolygon", "coordinates": [ [ [ [ 28.5599, 38.1087 ], [ 28.5257, 38.0972 ], [ 28.448, 38.0671 ], [ 28.4208, 38.0618 ], [ 28.3992, 38.0547 ], [ 28.3639, 38.0479 ], [ 28.3565, 38.0645 ], [ 28.3377, 38.0909 ], [ 28.3304, 38.096 ], [ 28.3067, 38.1069 ], [ 28.2936, 38.1169 ], [ 28.2803, 38.1313 ], [ 28.2621, 38.1406 ], [ 28.2495, 38.1449 ], [ 28.2379, 38.1462 ], [ 28.1521, 38.1473 ], [ 28.147, 38.1659 ], [ 28.1368, 38.1849 ], [ 28.1309, 38.2151 ], [ 28.1228, 38.2289 ], [ 28.1171, 38.2474 ], [ 28.1077, 38.2638 ], [ 28.1007, 38.2848 ], [ 28.0911, 38.3012 ], [ 28.0889, 38.3179 ], [ 28.0923, 38.3315 ], [ 28.0959, 38.3359 ], [ 28.1058, 38.3426 ], [ 28.1211, 38.3484 ], [ 28.143, 38.3594 ], [ 28.1566, 38.3637 ], [ 28.1663, 38.3582 ], [ 28.1957, 38.3461 ], [ 28.2293, 38.3339 ], [ 28.2585, 38.3266 ], [ 28.2654, 38.3223 ], [ 28.2946, 38.3188 ], [ 28.3232, 38.3103 ], [ 28.385, 38.3074 ], [ 28.4065, 38.3004 ], [ 28.4268, 38.2968 ], [ 28.44, 38.2923 ], [ 28.4564, 38.2805 ], [ 28.4626, 38.2734 ], [ 28.4767, 38.2498 ], [ 28.4832, 38.2169 ], [ 28.4912, 38.2031 ], [ 28.4979, 38.182 ], [ 28.512, 38.1584 ], [ 28.5312, 38.1306 ], [ 28.5435, 38.1199 ], [ 28.5599, 38.1087 ] ] ] ] } },
{ "type": "Feature", "properties": { "GID_2": "TUR.41.19_1", "GID_0": "TUR", "COUNTRY": "Turkey", "GID_1": "TUR.41_1", "NAME_1": "Izmir", "NL_NAME_1": "NA", "NAME_2": "Konak", "VARNAME_2": "NA", "NL_NAME_2": "NA", "TYPE_2": "District", "ENGTYPE_2": "District", "CC_2": "NA", "HASC_2": "TR.IZ.KO" }, "geometry": { "type": "MultiPolygon", "coordinates": [ [ [ [ 27.0637, 38.3477 ], [ 27.0794, 38.3504 ], [ 27.0869, 38.3542 ], [ 27.0907, 38.3623 ], [ 27.0901, 38.3999 ], [ 27.099, 38.4065 ], [ 27.1187, 38.4104 ], [ 27.1251, 38.4174 ], [ 27.1249, 38.419 ], [ 27.1287, 38.4215 ], [ 27.1279, 38.4235 ], [ 27.1293, 38.4246 ], [ 27.1313, 38.4235 ], [ 27.1321, 38.4287 ], [ 27.134, 38.429 ], [ 27.1374, 38.434 ], [ 27.141, 38.4362 ], [ 27.1424, 38.4421 ], [ 27.1457, 38.4424 ], [ 27.1454, 38.4449 ], [ 27.1474, 38.4471 ], [ 27.1499, 38.4468 ], [ 27.1476, 38.4443 ], [ 27.149, 38.4424 ], [ 27.1513, 38.4424 ], [ 27.154, 38.4468 ], [ 27.1596, 38.446 ], [ 27.1576, 38.4421 ], [ 27.1593, 38.4407 ], [ 27.1604, 38.4407 ], [ 27.1588, 38.4418 ], [ 27.1596, 38.4437 ], [ 27.1618, 38.4451 ], [ 27.1621, 38.4407 ], [ 27.1637, 38.4399 ], [ 27.1676, 38.4404 ], [ 27.1685, 38.444 ], [ 27.1671, 38.446 ], [ 27.1696, 38.4437 ], [ 27.1688, 38.4407 ], [ 27.1707, 38.4412 ], [ 27.171, 38.4484 ], [ 27.1847, 38.4439 ], [ 27.1864, 38.4174 ], [ 27.1909, 38.4042 ], [ 27.1806, 38.3935 ], [ 27.162, 38.3843 ], [ 27.1577, 38.3711 ], [ 27.1508, 38.361 ], [ 27.1548, 38.3536 ], [ 27.1245, 38.3366 ], [ 27.1113, 38.3273 ], [ 27.0675, 38.3273 ], [ 27.0651, 38.3244 ], [ 27.0633, 38.3255 ], [ 27.065, 38.3279 ], [ 27.0625, 38.3416 ], [ 27.0637, 38.3477 ] ] ] ] } },
{ "type": "Feature", "properties": { "GID_2": "TUR.41.20_1", "GID_0": "TUR", "COUNTRY": "Turkey", "GID_1": "TUR.41_1", "NAME_1": "Izmir", "NL_NAME_1": "NA", "NAME_2": "Menderes", "VARNAME_2": "NA", "NL_NAME_2": "NA", "TYPE_2": "District", "ENGTYPE_2": "District", "CC_2": "NA", "HASC_2": "TR.IZ.MD" }, "geometry": { "type": "MultiPolygon", "coordinates": [ [ [ [ 27.014, 38.0449 ], [ 27.014, 38.0432 ], [ 27.0118, 38.0443 ], [ 27.0124, 38.0454 ], [ 27.014, 38.0449 ] ] ], [ [ [ 27.0652, 38.3243 ], [ 27.0934, 38.3046 ], [ 27.1086, 38.2998 ], [ 27.1607, 38.2981 ], [ 27.1784, 38.2989 ], [ 27.2045, 38.3037 ], [ 27.2027, 38.2182 ], [ 27.2051, 38.1974 ], [ 27.2149, 38.1845 ], [ 27.2486, 38.158 ], [ 27.2584, 38.1485 ], [ 27.3039, 38.0785 ], [ 27.3076, 38.0673 ], [ 27.3082, 38.055 ], [ 27.3066, 38.0427 ], [ 27.3027, 38.032 ], [ 27.2882, 38.0256 ], [ 27.2692, 38.0124 ], [ 27.2543, 37.9996 ], [ 27.2404, 37.985 ], [ 27.2357, 37.986 ], [ 27.2354, 37.984 ], [ 27.2315, 37.9837 ], [ 27.2182, 37.9888 ], [ 27.2174, 37.9921 ], [ 27.2154, 37.9924 ], [ 27.2124, 37.9904 ], [ 27.2054, 37.9921 ], [ 27.2057, 37.9901 ], [ 27.2029, 37.9885 ], [ 27.1993, 37.9907 ], [ 27.196, 37.9904 ], [ 27.1951, 37.9882 ], [ 27.1874, 37.9907 ], [ 27.1815, 37.9857 ], [ 27.1754, 37.9863 ], [ 27.1729, 37.9829 ], [ 27.1693, 37.984 ], [ 27.1676, 37.981 ], [ 27.156, 37.9837 ], [ 27.1543, 37.9868 ], [ 27.1482, 37.986 ], [ 27.1465, 37.9829 ], [ 27.1429, 37.9837 ], [ 27.1396, 37.9888 ], [ 27.1332, 37.9876 ], [ 27.131, 37.991 ], [ 27.1265, 37.9935 ], [ 27.1207, 37.9943 ], [ 27.1193, 37.9924 ], [ 27.1182, 37.9971 ], [ 27.1154, 37.9976 ], [ 27.1149, 38.001 ], [ 27.111, 38.001 ], [ 27.111, 38.0054 ], [ 27.1082, 38.0054 ], [ 27.1076, 38.0088 ], [ 27.1049, 38.0093 ], [ 27.1029, 38.0129 ], [ 27.099, 38.0154 ], [ 27.089, 38.0176 ], [ 27.0868, 38.0168 ], [ 27.086, 38.0137 ], [ 27.0779, 38.0163 ], [ 27.0779, 38.014 ], [ 27.0754, 38.0126 ], [ 27.0743, 38.0171 ], [ 27.0704, 38.019 ], [ 27.0721, 38.0199 ], [ 27.0704, 38.0229 ], [ 27.0724, 38.0232 ], [ 27.0726, 38.0254 ], [ 27.069, 38.0324 ], [ 27.0635, 38.0376 ], [ 27.0607, 38.0365 ], [ 27.0537, 38.0457 ], [ 27.0482, 38.0501 ], [ 27.0393, 38.0532 ], [ 27.014, 38.0557 ], [ 27.0054, 38.0604 ], [ 27.0032, 38.064 ], [ 26.9963, 38.0663 ], [ 26.9935, 38.0701 ], [ 26.9835, 38.0743 ], [ 26.9701, 38.0749 ], [ 26.9679, 38.0713 ], [ 26.966, 38.0721 ], [ 26.9657, 38.0746 ], [ 26.9621, 38.076 ], [ 26.9482, 38.0754 ], [ 26.956, 38.0832 ], [ 27.0018, 38.1198 ], [ 27.0071, 38.1294 ], [ 27.0075, 38.1393 ], [ 27.0041, 38.1488 ], [ 26.9736, 38.1952 ], [ 26.9623, 38.2059 ], [ 26.9263, 38.2344 ], [ 26.9117, 38.2508 ], [ 26.9134, 38.2631 ], [ 26.9102, 38.2729 ], [ 26.9589, 38.3018 ], [ 26.9793, 38.3228 ], [ 26.9944, 38.3312 ], [ 27.0122, 38.334 ], [ 27.0417, 38.3333 ], [ 27.0522, 38.3311 ], [ 27.0652, 38.3243 ] ] ] ] } },
{ "type": "Feature", "properties": { "GID_2": "TUR.41.21_1", "GID_0": "TUR", "COUNTRY": "Turkey", "GID_1": "TUR.41_1", "NAME_1": "Izmir", "NL_NAME_1": "NA", "NAME_2": "Menemen", "VARNAME_2": "NA", "NL_NAME_2": "NA", "TYPE_2": "District", "ENGTYPE_2": "District", "CC_2": "NA", "HASC_2": "TR.IZ.MN" }, "geometry": { "type": "MultiPolygon", "coordinates": [ [ [ [ 26.8844, 38.5053 ], [ 26.8843, 38.5054 ], [ 26.8844, 38.5054 ], [ 26.8844, 38.5053 ] ] ], [ [ [ 26.8188, 38.5449 ], [ 26.8215, 38.5401 ], [ 26.8243, 38.5401 ], [ 26.8246, 38.5374 ], [ 26.8263, 38.5382 ], [ 26.8243, 38.5357 ], [ 26.8276, 38.5335 ], [ 26.826, 38.5315 ], [ 26.8185, 38.5374 ], [ 26.814, 38.5443 ], [ 26.821, 38.5488 ], [ 26.8188, 38.5449 ] ] ], [ [ [ 26.8846, 38.5057 ], [ 26.8849, 38.5057 ], [ 26.8846, 38.5055 ], [ 26.8846, 38.5057 ] ] ], [ [ [ 26.851, 38.5343 ], [ 26.8546, 38.5335 ], [ 26.8546, 38.5326 ], [ 26.849, 38.5346 ], [ 26.851, 38.5343 ] ] ], [ [ [ 26.8613, 38.5351 ], [ 26.8635, 38.5332 ], [ 26.8579, 38.5337 ], [ 26.8596, 38.5365 ], [ 26.859, 38.5337 ], [ 26.8613, 38.5337 ], [ 26.8613, 38.5351 ] ] ], [ [ [ 26.9621, 38.7179 ], [ 26.981, 38.721 ], [ 27.0558, 38.7498 ], [ 27.0936, 38.7523 ], [ 27.1072, 38.7547 ], [ 27.1141, 38.7599 ], [ 27.1245, 38.7797 ], [ 27.1612, 38.7722 ], [ 27.2181, 38.7505 ], [ 27.2297, 38.7416 ], [ 27.2335, 38.7337 ], [ 27.2372, 38.7098 ], [ 27.2469, 38.6901 ], [ 27.2518, 38.6632 ], [ 27.2618, 38.6435 ], [ 27.2668, 38.6166 ], [ 27.2768, 38.5973 ], [ 27.28, 38.5722 ], [ 27.233, 38.5568 ], [ 27.2205, 38.5554 ], [ 27.2102, 38.55 ], [ 27.1839, 38.545 ], [ 27.1471, 38.5461 ], [ 27.1167, 38.5557 ], [ 27.1071, 38.5538 ], [ 27.0922, 38.5476 ], [ 27.0754, 38.5318 ], [ 27.055, 38.529 ], [ 27.0273, 38.5187 ], [ 27.0143, 38.5119 ], [ 26.9704, 38.5077 ], [ 26.932, 38.5081 ], [ 26.9095, 38.5154 ], [ 26.9014, 38.5158 ], [ 26.8957, 38.5147 ], [ 26.8849, 38.5057 ], [ 26.8838, 38.5082 ], [ 26.8746, 38.5121 ], [ 26.8437, 38.5199 ], [ 26.8299, 38.5251 ], [ 26.8271, 38.5299 ], [ 26.8371, 38.5226 ], [ 26.854, 38.5204 ], [ 26.8574, 38.5187 ], [ 26.856, 38.5185 ], [ 26.8568, 38.5176 ], [ 26.8668, 38.5157 ], [ 26.8804, 38.5104 ], [ 26.8863, 38.5101 ], [ 26.8882, 38.5118 ], [ 26.8843, 38.5157 ], [ 26.8771, 38.516 ], [ 26.8782, 38.5179 ], [ 26.8796, 38.5165 ], [ 26.8812, 38.5174 ], [ 26.8801, 38.5271 ], [ 26.8765, 38.5288 ], [ 26.8807, 38.529 ], [ 26.8826, 38.5349 ], [ 26.876, 38.534 ], [ 26.8701, 38.5371 ], [ 26.8593, 38.5388 ], [ 26.8482, 38.5429 ], [ 26.8454, 38.5457 ], [ 26.8465, 38.5493 ], [ 26.8476, 38.5485 ], [ 26.8487, 38.5504 ], [ 26.8476, 38.5554 ], [ 26.8451, 38.5554 ], [ 26.8474, 38.5565 ], [ 26.8471, 38.5596 ], [ 26.841, 38.5601 ], [ 26.8429, 38.5576 ], [ 26.8426, 38.5554 ], [ 26.8393, 38.554 ], [ 26.8426, 38.5521 ], [ 26.8426, 38.5504 ], [ 26.8379, 38.554 ], [ 26.8357, 38.5535 ], [ 26.8304, 38.5565 ], [ 26.8249, 38.5507 ], [ 26.8229, 38.5504 ], [ 26.8296, 38.5582 ], [ 26.8401, 38.5563 ], [ 26.841, 38.5579 ], [ 26.8385, 38.5612 ], [ 26.8468, 38.5604 ], [ 26.846, 38.5624 ], [ 26.8432, 38.5629 ], [ 26.8437, 38.5649 ], [ 26.8418, 38.5682 ], [ 26.8479, 38.5757 ], [ 26.8437, 38.5821 ], [ 26.8399, 38.5804 ], [ 26.8401, 38.5871 ], [ 26.8382, 38.5887 ], [ 26.8354, 38.5876 ], [ 26.8304, 38.5782 ], [ 26.8271, 38.5815 ], [ 26.8276, 38.5851 ], [ 26.8257, 38.5871 ], [ 26.8257, 38.5907 ], [ 26.8182, 38.586 ], [ 26.8165, 38.5896 ], [ 26.8143, 38.5899 ], [ 26.8163, 38.5943 ], [ 26.8104, 38.5949 ], [ 26.8088, 38.5969 ], [ 26.822, 38.6099 ], [ 26.8326, 38.6258 ], [ 26.8421, 38.6324 ], [ 26.8551, 38.6341 ], [ 26.8746, 38.6276 ], [ 26.888, 38.6272 ], [ 26.9232, 38.6407 ], [ 26.93, 38.6464 ], [ 26.9439, 38.667 ], [ 26.9467, 38.6717 ], [ 26.9488, 38.6826 ], [ 26.945, 38.696 ], [ 26.9263, 38.7179 ], [ 26.9621, 38.7179 ] ] ] ] } },
{ "type": "Feature", "properties": { "GID_2": "TUR.41.22_1", "GID_0": "TUR", "COUNTRY": "Turkey", "GID_1": "TUR.41_1", "NAME_1": "Izmir", "NL_NAME_1": "NA", "NAME_2": "Narlıdere", "VARNAME_2": "NA", "NL_NAME_2": "NA", "TYPE_2": "District", "ENGTYPE_2": "District", "CC_2": "NA", "HASC_2": "TR.IZ.NA" }, "geometry": { "type": "MultiPolygon", "coordinates": [ [ [ [ 27.0237, 38.4143 ], [ 27.0237, 38.4055 ], [ 27.0269, 38.3967 ], [ 27.0375, 38.3798 ], [ 27.0475, 38.3717 ], [ 27.0637, 38.3477 ], [ 27.0625, 38.3416 ], [ 27.065, 38.3279 ], [ 27.0633, 38.3255 ], [ 27.0522, 38.3311 ], [ 27.0417, 38.3333 ], [ 27.0122, 38.334 ], [ 26.9986, 38.3322 ], [ 26.9924, 38.336 ], [ 26.9636, 38.3373 ], [ 26.9543, 38.3429 ], [ 26.9443, 38.3535 ], [ 26.9336, 38.3838 ], [ 26.9435, 38.386 ], [ 26.9546, 38.3915 ], [ 26.9751, 38.3957 ], [ 26.9776, 38.3974 ], [ 26.9807, 38.3968 ], [ 26.9888, 38.401 ], [ 26.9968, 38.4079 ], [ 27.011, 38.4096 ], [ 27.0174, 38.4151 ], [ 27.0171, 38.4182 ], [ 27.0237, 38.4143 ] ] ] ] } },
{ "type": "Feature", "properties": { "GID_2": "TUR.41.23_1", "GID_0": "TUR", "COUNTRY": "Turkey", "GID_1": "TUR.41_1", "NAME_1": "Izmir", "NL_NAME_1": "NA", "NAME_2": "Ödemiş", "VARNAME_2": "NA", "NL_NAME_2": "NA", "TYPE_2": "District", "ENGTYPE_2": "District", "CC_2": "NA", "HASC_2": "TR.IZ.OD" }, "geometry": { "type": "MultiPolygon", "coordinates": [ [ [ [ 28.1423, 38.0292 ], [ 28.0971, 38.0301 ], [ 28.0598, 38.0278 ], [ 27.9937, 38.0084 ], [ 27.9781, 38.0068 ], [ 27.9537, 38.0067 ], [ 27.9387, 38.0184 ], [ 27.9387, 38.0474 ], [ 27.9365, 38.0613 ], [ 27.9264, 38.0804 ], [ 27.9207, 38.1105 ], [ 27.9065, 38.1341 ], [ 27.9001, 38.1414 ], [ 27.8813, 38.1569 ], [ 27.866, 38.166 ], [ 27.8556, 38.1688 ], [ 27.8203, 38.1725 ], [ 27.7655, 38.1923 ], [ 27.7719, 38.2052 ], [ 27.7766, 38.2243 ], [ 27.7876, 38.2465 ], [ 27.7892, 38.2935 ], [ 27.7912, 38.3057 ], [ 27.8066, 38.3321 ], [ 27.8213, 38.3508 ], [ 27.8501, 38.3347 ], [ 27.8678, 38.3329 ], [ 27.8783, 38.3347 ], [ 27.8875, 38.3391 ], [ 27.9287, 38.3676 ], [ 27.9683, 38.3814 ], [ 27.9941, 38.3965 ], [ 28.0088, 38.4014 ], [ 28.0334, 38.4029 ], [ 28.1175, 38.4028 ], [ 28.1331, 38.4001 ], [ 28.145, 38.392 ], [ 28.1496, 38.3843 ], [ 28.1566, 38.3637 ], [ 28.143, 38.3594 ], [ 28.1004, 38.3396 ], [ 28.0923, 38.3315 ], [ 28.0889, 38.3179 ], [ 28.0911, 38.3012 ], [ 28.1007, 38.2848 ], [ 28.1077, 38.2638 ], [ 28.1171, 38.2474 ], [ 28.1228, 38.2289 ], [ 28.1309, 38.2151 ], [ 28.1368, 38.1849 ], [ 28.147, 38.1659 ], [ 28.1521, 38.1473 ], [ 28.1469, 38.115 ], [ 28.1231, 38.0781 ], [ 28.1197, 38.0676 ], [ 28.1201, 38.0593 ], [ 28.1232, 38.0515 ], [ 28.1423, 38.0292 ] ] ] ] } },
{ "type": "Feature", "properties": { "GID_2": "TUR.41.24_1", "GID_0": "TUR", "COUNTRY": "Turkey", "GID_1": "TUR.41_1", "NAME_1": "Izmir", "NL_NAME_1": "NA", "NAME_2": "Seferihisar", "VARNAME_2": "NA", "NL_NAME_2": "NA", "TYPE_2": "District", "ENGTYPE_2": "District", "CC_2": "NA", "HASC_2": "TR.IZ.SF" }, "geometry": { "type": "MultiPolygon", "coordinates": [ [ [ [ 26.8818, 38.024 ], [ 26.8849, 38.0218 ], [ 26.8807, 38.0204 ], [ 26.8804, 38.0229 ], [ 26.8818, 38.024 ] ] ], [ [ [ 26.8571, 38.0457 ], [ 26.8554, 38.0443 ], [ 26.8538, 38.0449 ], [ 26.8549, 38.0465 ], [ 26.8571, 38.0457 ] ] ], [ [ [ 26.9216, 38.239 ], [ 26.9736, 38.1952 ], [ 27.0041, 38.1488 ], [ 27.0075, 38.1393 ], [ 27.0071, 38.1294 ], [ 27.0053, 38.1246 ], [ 26.9974, 38.1154 ], [ 26.9661, 38.0915 ], [ 26.9482, 38.0754 ], [ 26.9349, 38.0732 ], [ 26.926, 38.0693 ], [ 26.9201, 38.0687 ], [ 26.8979, 38.0615 ], [ 26.884, 38.0515 ], [ 26.8846, 38.049 ], [ 26.8821, 38.0474 ], [ 26.8821, 38.0424 ], [ 26.8765, 38.0376 ], [ 26.8765, 38.0337 ], [ 26.8746, 38.0335 ], [ 26.8721, 38.0299 ], [ 26.8699, 38.0301 ], [ 26.8685, 38.0329 ], [ 26.8668, 38.029 ], [ 26.8643, 38.0285 ], [ 26.8643, 38.0304 ], [ 26.866, 38.0313 ], [ 26.8646, 38.0337 ], [ 26.8668, 38.036 ], [ 26.8674, 38.0401 ], [ 26.8629, 38.0404 ], [ 26.8579, 38.0454 ], [ 26.8587, 38.0496 ], [ 26.8549, 38.0551 ], [ 26.8554, 38.0588 ], [ 26.8499, 38.0674 ], [ 26.8465, 38.0687 ], [ 26.8449, 38.0726 ], [ 26.8449, 38.0793 ], [ 26.8499, 38.0832 ], [ 26.8499, 38.0943 ], [ 26.8482, 38.0954 ], [ 26.8501, 38.0965 ], [ 26.8513, 38.1021 ], [ 26.8457, 38.1096 ], [ 26.8415, 38.1124 ], [ 26.8421, 38.116 ], [ 26.8393, 38.121 ], [ 26.8354, 38.124 ], [ 26.8299, 38.1243 ], [ 26.8296, 38.1268 ], [ 26.8335, 38.1263 ], [ 26.8338, 38.129 ], [ 26.8357, 38.1282 ], [ 26.8368, 38.1318 ], [ 26.8324, 38.1321 ], [ 26.8324, 38.1354 ], [ 26.8293, 38.1368 ], [ 26.8301, 38.1385 ], [ 26.8224, 38.1404 ], [ 26.819, 38.1446 ], [ 26.8196, 38.1468 ], [ 26.8235, 38.1493 ], [ 26.8221, 38.1515 ], [ 26.8246, 38.1546 ], [ 26.8243, 38.1582 ], [ 26.8199, 38.1615 ], [ 26.8146, 38.1626 ], [ 26.8132, 38.1657 ], [ 26.8076, 38.1662 ], [ 26.8035, 38.171 ], [ 26.7954, 38.1735 ], [ 26.7879, 38.1701 ], [ 26.786, 38.164 ], [ 26.779, 38.1657 ], [ 26.7749, 38.1613 ], [ 26.774, 38.1701 ], [ 26.7721, 38.1707 ], [ 26.7735, 38.174 ], [ 26.7693, 38.1732 ], [ 26.7674, 38.1754 ], [ 26.7721, 38.1815 ], [ 26.7696, 38.1835 ], [ 26.7707, 38.1913 ], [ 26.7735, 38.1907 ], [ 26.774, 38.1918 ], [ 26.7721, 38.1968 ], [ 26.7771, 38.1996 ], [ 26.7826, 38.196 ], [ 26.7813, 38.1932 ], [ 26.7829, 38.1921 ], [ 26.7829, 38.1954 ], [ 26.7871, 38.196 ], [ 26.7904, 38.199 ], [ 26.7868, 38.2012 ], [ 26.7829, 38.2007 ], [ 26.7821, 38.2032 ], [ 26.7787, 38.2024 ], [ 26.7735, 38.2049 ], [ 26.7718, 38.2079 ], [ 26.7738, 38.2096 ], [ 26.7715, 38.2101 ], [ 26.7693, 38.2137 ], [ 26.7668, 38.2132 ], [ 26.7663, 38.2165 ], [ 26.7624, 38.2143 ], [ 26.761, 38.2168 ], [ 26.7576, 38.2182 ], [ 26.7574, 38.2221 ], [ 26.7529, 38.2229 ], [ 26.7493, 38.2182 ], [ 26.7454, 38.219 ], [ 26.7474, 38.2163 ], [ 26.7474, 38.2137 ], [ 26.7454, 38.2121 ], [ 26.7435, 38.2126 ], [ 26.7438, 38.2143 ], [ 26.7396, 38.2126 ], [ 26.7365, 38.216 ], [ 26.7335, 38.2124 ], [ 26.7354, 38.209 ], [ 26.7329, 38.2068 ], [ 26.7268, 38.2088 ], [ 26.7224, 38.2074 ], [ 26.7215, 38.2118 ], [ 26.7174, 38.2088 ], [ 26.7152, 38.2142 ], [ 26.7326, 38.2394 ], [ 26.7422, 38.2647 ], [ 26.7515, 38.272 ], [ 26.7618, 38.2752 ], [ 26.7775, 38.2759 ], [ 26.7931, 38.2742 ], [ 26.8145, 38.2666 ], [ 26.8382, 38.2618 ], [ 26.8667, 38.2531 ], [ 26.9117, 38.2508 ], [ 26.9216, 38.239 ] ] ], [ [ [ 26.804, 38.1529 ], [ 26.8029, 38.1496 ], [ 26.8021, 38.1493 ], [ 26.8024, 38.1524 ], [ 26.804, 38.1529 ] ] ], [ [ [ 26.8054, 38.1615 ], [ 26.8026, 38.1576 ], [ 26.8007, 38.1574 ], [ 26.8024, 38.1626 ], [ 26.806, 38.1629 ], [ 26.8054, 38.1615 ] ] ], [ [ [ 26.7701, 38.2004 ], [ 26.7721, 38.1996 ], [ 26.7718, 38.1982 ], [ 26.7693, 38.1985 ], [ 26.7685, 38.2007 ], [ 26.7701, 38.2004 ] ] ] ] } },
{ "type": "Feature", "properties": { "GID_2": "TUR.41.25_1", "GID_0": "TUR", "COUNTRY": "Turkey", "GID_1": "TUR.41_1", "NAME_1": "Izmir", "NL_NAME_1": "NA", "NAME_2": "Selçuk", "VARNAME_2": "NA", "NL_NAME_2": "NA", "TYPE_2": "District", "ENGTYPE_2": "District", "CC_2": "NA", "HASC_2": "TR.IZ.SC" }, "geometry": { "type": "MultiPolygon", "coordinates": [ [ [ [ 27.5031, 37.9605 ], [ 27.5009, 37.9527 ], [ 27.4942, 37.9439 ], [ 27.4894, 37.9405 ], [ 27.4717, 37.9333 ], [ 27.4417, 37.9161 ], [ 27.4083, 37.9078 ], [ 27.3665, 37.8933 ], [ 27.3546, 37.8913 ], [ 27.2783, 37.8915 ], [ 27.2671, 37.8937 ], [ 27.2682, 37.8965 ], [ 27.2724, 37.8982 ], [ 27.2721, 37.9032 ], [ 27.2693, 37.906 ], [ 27.2643, 37.9051 ], [ 27.2612, 37.9093 ], [ 27.2635, 37.9121 ], [ 27.2607, 37.9126 ], [ 27.2632, 37.9146 ], [ 27.2663, 37.9221 ], [ 27.2754, 37.9224 ], [ 27.2765, 37.9238 ], [ 27.2762, 37.9368 ], [ 27.2732, 37.9487 ], [ 27.2707, 37.9526 ], [ 27.2615, 37.9599 ], [ 27.2596, 37.9679 ], [ 27.2532, 37.9776 ], [ 27.2485, 37.9813 ], [ 27.2418, 37.9801 ], [ 27.2404, 37.985 ], [ 27.2543, 37.9996 ], [ 27.2692, 38.0124 ], [ 27.2882, 38.0256 ], [ 27.3027, 38.032 ], [ 27.3592, 38.0292 ], [ 27.3884, 38.0208 ], [ 27.4162, 38.0167 ], [ 27.4308, 38.0129 ], [ 27.4331, 38.0054 ], [ 27.4452, 37.9845 ], [ 27.459, 37.971 ], [ 27.4677, 37.9655 ], [ 27.4777, 37.9619 ], [ 27.5031, 37.9605 ] ] ] ] } },
{ "type": "Feature", "properties": { "GID_2": "TUR.41.26_1", "GID_0": "TUR", "COUNTRY": "Turkey", "GID_1": "TUR.41_1", "NAME_1": "Izmir", "NL_NAME_1": "NA", "NAME_2": "Tire", "VARNAME_2": "NA", "NL_NAME_2": "NA", "TYPE_2": "District", "ENGTYPE_2": "District", "CC_2": "NA", "HASC_2": "TR.IZ.TI" }, "geometry": { "type": "MultiPolygon", "coordinates": [ [ [ [ 27.7201, 37.9855 ], [ 27.6802, 37.9836 ], [ 27.5318, 37.9837 ], [ 27.5199, 37.9811 ], [ 27.5135, 37.9776 ], [ 27.5066, 37.9703 ], [ 27.5031, 37.9605 ], [ 27.4884, 37.9607 ], [ 27.4777, 37.9619 ], [ 27.4677, 37.9655 ], [ 27.4514, 37.9774 ], [ 27.4452, 37.9845 ], [ 27.4331, 38.0054 ], [ 27.4308, 38.0129 ], [ 27.4446, 38.0391 ], [ 27.4496, 38.0457 ], [ 27.4905, 38.078 ], [ 27.5001, 38.0892 ], [ 27.5003, 38.0998 ], [ 27.491, 38.1151 ], [ 27.4813, 38.1386 ], [ 27.5044, 38.1446 ], [ 27.5252, 38.1467 ], [ 27.7283, 38.1457 ], [ 27.7439, 38.1468 ], [ 27.7538, 38.1506 ], [ 27.7575, 38.1552 ], [ 27.7655, 38.1923 ], [ 27.8203, 38.1725 ], [ 27.8556, 38.1688 ], [ 27.866, 38.166 ], [ 27.8924, 38.1483 ], [ 27.9065, 38.1341 ], [ 27.9207, 38.1105 ], [ 27.9264, 38.0804 ], [ 27.9343, 38.0663 ], [ 27.9378, 38.0559 ], [ 27.9387, 38.0184 ], [ 27.9288, 38.0078 ], [ 27.9236, 37.9951 ], [ 27.8984, 37.9931 ], [ 27.8667, 37.9847 ], [ 27.8152, 37.9826 ], [ 27.7758, 37.9723 ], [ 27.7639, 37.9718 ], [ 27.7446, 37.9743 ], [ 27.7201, 37.9855 ] ] ] ] } },
{ "type": "Feature", "properties": { "GID_2": "TUR.41.27_1", "GID_0": "TUR", "COUNTRY": "Turkey", "GID_1": "TUR.41_1", "NAME_1": "Izmir", "NL_NAME_1": "NA", "NAME_2": "Torbalı", "VARNAME_2": "NA", "NL_NAME_2": "NA", "TYPE_2": "District", "ENGTYPE_2": "District", "CC_2": "NA", "HASC_2": "TR.IZ.TO" }, "geometry": { "type": "MultiPolygon", "coordinates": [ [ [ [ 27.4728, 38.2801 ], [ 27.4835, 38.267 ], [ 27.4873, 38.2599 ], [ 27.4885, 38.2516 ], [ 27.487, 38.2433 ], [ 27.4826, 38.2361 ], [ 27.4612, 38.2157 ], [ 27.4475, 38.1953 ], [ 27.4457, 38.1876 ], [ 27.4481, 38.1799 ], [ 27.4686, 38.1596 ], [ 27.4813, 38.1386 ], [ 27.491, 38.1151 ], [ 27.5003, 38.0998 ], [ 27.5011, 38.0934 ], [ 27.497, 38.0844 ], [ 27.4496, 38.0457 ], [ 27.4446, 38.0391 ], [ 27.4308, 38.0129 ], [ 27.4162, 38.0167 ], [ 27.3884, 38.0208 ], [ 27.3592, 38.0292 ], [ 27.3027, 38.032 ], [ 27.3066, 38.0427 ], [ 27.3082, 38.055 ], [ 27.3076, 38.0673 ], [ 27.3039, 38.0785 ], [ 27.2584, 38.1485 ], [ 27.2486, 38.158 ], [ 27.2149, 38.1845 ], [ 27.2051, 38.1974 ], [ 27.2027, 38.2182 ], [ 27.2045, 38.3037 ], [ 27.2429, 38.2923 ], [ 27.2514, 38.2916 ], [ 27.2951, 38.3017 ], [ 27.3241, 38.3211 ], [ 27.387, 38.321 ], [ 27.4008, 38.3177 ], [ 27.427, 38.3021 ], [ 27.4457, 38.2945 ], [ 27.4728, 38.2801 ] ] ] ] } },
{ "type": "Feature", "properties": { "GID_2": "TUR.41.28_1", "GID_0": "TUR", "COUNTRY": "Turkey", "GID_1": "TUR.41_1", "NAME_1": "Izmir", "NL_NAME_1": "NA", "NAME_2": "Urla", "VARNAME_2": "NA", "NL_NAME_2": "NA", "TYPE_2": "District", "ENGTYPE_2": "District", "CC_2": "NA", "HASC_2": "TR.IZ.UR" }, "geometry": { "type": "MultiPolygon", "coordinates": [ [ [ [ 26.4716, 38.2091 ], [ 26.4793, 38.2184 ], [ 26.4825, 38.2297 ], [ 26.482, 38.2895 ], [ 26.4783, 38.3003 ], [ 26.4653, 38.3215 ], [ 26.4535, 38.3371 ], [ 26.4535, 38.3452 ], [ 26.456, 38.3565 ], [ 26.4618, 38.359 ], [ 26.4626, 38.364 ], [ 26.4676, 38.3649 ], [ 26.4724, 38.3732 ], [ 26.479, 38.3743 ], [ 26.4826, 38.3768 ], [ 26.4751, 38.3812 ], [ 26.4729, 38.3868 ], [ 26.4743, 38.3907 ], [ 26.4724, 38.3943 ], [ 26.4743, 38.396 ], [ 26.4757, 38.4015 ], [ 26.4726, 38.4038 ], [ 26.4721, 38.4068 ], [ 26.4671, 38.4124 ], [ 26.4621, 38.4087 ], [ 26.459, 38.4096 ], [ 26.4621, 38.4157 ], [ 26.4615, 38.4179 ], [ 26.4557, 38.4207 ], [ 26.4526, 38.4199 ], [ 26.4504, 38.4271 ], [ 26.4546, 38.4279 ], [ 26.4615, 38.426 ], [ 26.4629, 38.424 ], [ 26.4662, 38.4271 ], [ 26.4704, 38.4263 ], [ 26.4779, 38.4176 ], [ 26.4835, 38.4143 ], [ 26.4863, 38.409 ], [ 26.4854, 38.404 ], [ 26.4874, 38.4021 ], [ 26.4962, 38.4015 ], [ 26.4982, 38.4046 ], [ 26.5029, 38.4063 ], [ 26.5032, 38.4107 ], [ 26.501, 38.4151 ], [ 26.5065, 38.4146 ], [ 26.5107, 38.4185 ], [ 26.5118, 38.4201 ], [ 26.5099, 38.4221 ], [ 26.5107, 38.426 ], [ 26.5154, 38.4274 ], [ 26.5163, 38.4307 ], [ 26.5049, 38.4365 ], [ 26.5018, 38.4421 ], [ 26.4974, 38.4449 ], [ 26.4962, 38.4474 ], [ 26.4893, 38.4488 ], [ 26.4854, 38.4529 ], [ 26.4809, 38.4549 ], [ 26.5104, 38.4615 ], [ 26.534, 38.4621 ], [ 26.5532, 38.4603 ], [ 26.5746, 38.4529 ], [ 26.5881, 38.4501 ], [ 26.5936, 38.4574 ], [ 26.6015, 38.4601 ], [ 26.6049, 38.4515 ], [ 26.6026, 38.4493 ], [ 26.6026, 38.4468 ], [ 26.5996, 38.4468 ], [ 26.599, 38.4454 ], [ 26.6035, 38.4401 ], [ 26.6007, 38.4385 ], [ 26.5999, 38.434 ], [ 26.5979, 38.4321 ], [ 26.5946, 38.4332 ], [ 26.5918, 38.4301 ], [ 26.5879, 38.4318 ], [ 26.5846, 38.4285 ], [ 26.5846, 38.4265 ], [ 26.5868, 38.424 ], [ 26.5893, 38.4238 ], [ 26.5899, 38.4215 ], [ 26.5999, 38.4162 ], [ 26.6021, 38.4165 ], [ 26.6046, 38.4201 ], [ 26.6115, 38.4224 ], [ 26.6118, 38.419 ], [ 26.6162, 38.4154 ], [ 26.6168, 38.4126 ], [ 26.6146, 38.411 ], [ 26.6179, 38.4085 ], [ 26.6171, 38.4029 ], [ 26.619, 38.4026 ], [ 26.6201, 38.4004 ], [ 26.6229, 38.4015 ], [ 26.6243, 38.4001 ], [ 26.6254, 38.3946 ], [ 26.6235, 38.3924 ], [ 26.6271, 38.3901 ], [ 26.6299, 38.3815 ], [ 26.6401, 38.3793 ], [ 26.6435, 38.3757 ], [ 26.6454, 38.3707 ], [ 26.6454, 38.3571 ], [ 26.6413, 38.3476 ], [ 26.6443, 38.3399 ], [ 26.6524, 38.3382 ], [ 26.6537, 38.3349 ], [ 26.6507, 38.3346 ], [ 26.6524, 38.3329 ], [ 26.6521, 38.3288 ], [ 26.6537, 38.3304 ], [ 26.6585, 38.3246 ], [ 26.6632, 38.3243 ], [ 26.6668, 38.3174 ], [ 26.6721, 38.3129 ], [ 26.6807, 38.3104 ], [ 26.6893, 38.3112 ], [ 26.7015, 38.3151 ], [ 26.7032, 38.3204 ], [ 26.6999, 38.3226 ], [ 26.7015, 38.3276 ], [ 26.7001, 38.3324 ], [ 26.6935, 38.3354 ], [ 26.6951, 38.3399 ], [ 26.6915, 38.3443 ], [ 26.6868, 38.3468 ], [ 26.6793, 38.3476 ], [ 26.6779, 38.3493 ], [ 26.6751, 38.3479 ], [ 26.6768, 38.3546 ], [ 26.6749, 38.3579 ], [ 26.6779, 38.3604 ], [ 26.6835, 38.3563 ], [ 26.6849, 38.3504 ], [ 26.6882, 38.351 ], [ 26.6815, 38.3629 ], [ 26.6821, 38.3646 ], [ 26.6799, 38.366 ], [ 26.6818, 38.3671 ], [ 26.6821, 38.3732 ], [ 26.6749, 38.3824 ], [ 26.6754, 38.3921 ], [ 26.6785, 38.3949 ], [ 26.6779, 38.3974 ], [ 26.684, 38.3996 ], [ 26.686, 38.4029 ], [ 26.6857, 38.4057 ], [ 26.6824, 38.4087 ], [ 26.6832, 38.4115 ], [ 26.6882, 38.4182 ], [ 26.6929, 38.4196 ], [ 26.6965, 38.426 ], [ 26.6999, 38.4257 ], [ 26.7004, 38.4282 ], [ 26.7051, 38.4296 ], [ 26.7074, 38.4346 ], [ 26.7112, 38.4332 ], [ 26.7154, 38.4274 ], [ 26.7224, 38.4271 ], [ 26.7237, 38.4287 ], [ 26.7215, 38.429 ], [ 26.7221, 38.4324 ], [ 26.7193, 38.436 ], [ 26.7204, 38.4371 ], [ 26.7246, 38.4362 ], [ 26.7274, 38.4321 ], [ 26.7318, 38.4304 ], [ 26.7296, 38.4268 ], [ 26.731, 38.4246 ], [ 26.7329, 38.4293 ], [ 26.7349, 38.4299 ], [ 26.7399, 38.4235 ], [ 26.7404, 38.421 ], [ 26.7354, 38.419 ], [ 26.7349, 38.4174 ], [ 26.7424, 38.4026 ], [ 26.7504, 38.4001 ], [ 26.7551, 38.4007 ], [ 26.7554, 38.3974 ], [ 26.7479, 38.3988 ], [ 26.749, 38.3965 ], [ 26.7515, 38.3968 ], [ 26.7521, 38.3949 ], [ 26.7496, 38.3946 ], [ 26.7496, 38.3924 ], [ 26.7524, 38.3915 ], [ 26.754, 38.3885 ], [ 26.7629, 38.3843 ], [ 26.7615, 38.3818 ], [ 26.7632, 38.3793 ], [ 26.7618, 38.374 ], [ 26.7665, 38.3668 ], [ 26.7715, 38.3657 ], [ 26.7738, 38.3635 ], [ 26.7813, 38.3635 ], [ 26.7818, 38.3618 ], [ 26.7946, 38.3563 ], [ 26.8085, 38.3554 ], [ 26.8129, 38.3582 ], [ 26.8176, 38.3643 ], [ 26.8226, 38.3657 ], [ 26.824, 38.3676 ], [ 26.8281, 38.3676 ], [ 26.825, 38.3488 ], [ 26.814, 38.3279 ], [ 26.814, 38.3204 ], [ 26.8181, 38.3138 ], [ 26.8307, 38.3099 ], [ 26.8565, 38.3074 ], [ 26.8868, 38.2965 ], [ 26.8987, 38.288 ], [ 26.9102, 38.2729 ], [ 26.9134, 38.2631 ], [ 26.9117, 38.2508 ], [ 26.8785, 38.2521 ], [ 26.8592, 38.2546 ], [ 26.8382, 38.2618 ], [ 26.8145, 38.2666 ], [ 26.7931, 38.2742 ], [ 26.7696, 38.2759 ], [ 26.7515, 38.272 ], [ 26.7422, 38.2647 ], [ 26.7393, 38.2599 ], [ 26.7326, 38.2394 ], [ 26.7152, 38.2142 ], [ 26.7162, 38.2107 ], [ 26.7151, 38.2099 ], [ 26.7062, 38.211 ], [ 26.706, 38.2082 ], [ 26.7026, 38.2068 ], [ 26.6974, 38.211 ], [ 26.6943, 38.2104 ], [ 26.6949, 38.2057 ], [ 26.6885, 38.2062 ], [ 26.6865, 38.2024 ], [ 26.6832, 38.2043 ], [ 26.6863, 38.2065 ], [ 26.6857, 38.2085 ], [ 26.6804, 38.2118 ], [ 26.6774, 38.2113 ], [ 26.6774, 38.2082 ], [ 26.6749, 38.2043 ], [ 26.6707, 38.2076 ], [ 26.6668, 38.2065 ], [ 26.6657, 38.209 ], [ 26.6612, 38.2099 ], [ 26.6565, 38.2071 ], [ 26.6535, 38.2101 ], [ 26.6507, 38.2096 ], [ 26.6518, 38.2051 ], [ 26.6493, 38.2026 ], [ 26.6451, 38.2015 ], [ 26.636, 38.2074 ], [ 26.6396, 38.2012 ], [ 26.6357, 38.1979 ], [ 26.6324, 38.2004 ], [ 26.631, 38.1963 ], [ 26.6315, 38.1913 ], [ 26.6293, 38.1865 ], [ 26.6315, 38.184 ], [ 26.6307, 38.1779 ], [ 26.6324, 38.1771 ], [ 26.6335, 38.1732 ], [ 26.631, 38.1682 ], [ 26.6338, 38.1674 ], [ 26.6315, 38.1607 ], [ 26.6293, 38.1596 ], [ 26.6243, 38.1385 ], [ 26.6196, 38.1385 ], [ 26.6168, 38.1368 ], [ 26.6138, 38.1385 ], [ 26.6093, 38.1382 ], [ 26.609, 38.141 ], [ 26.6068, 38.139 ], [ 26.6032, 38.1435 ], [ 26.6043, 38.1385 ], [ 26.6076, 38.1354 ], [ 26.6132, 38.1354 ], [ 26.611, 38.1271 ], [ 26.6154, 38.1146 ], [ 26.6149, 38.111 ], [ 26.6115, 38.1071 ], [ 26.6065, 38.1054 ], [ 26.6046, 38.1024 ], [ 26.5985, 38.1068 ], [ 26.5915, 38.1026 ], [ 26.5812, 38.1096 ], [ 26.5818, 38.1135 ], [ 26.5846, 38.1151 ], [ 26.5832, 38.1171 ], [ 26.584, 38.1254 ], [ 26.5812, 38.1268 ], [ 26.5774, 38.136 ], [ 26.5738, 38.1379 ], [ 26.571, 38.1426 ], [ 26.5632, 38.144 ], [ 26.5668, 38.1396 ], [ 26.566, 38.1282 ], [ 26.5674, 38.1263 ], [ 26.5643, 38.1229 ], [ 26.5646, 38.1204 ], [ 26.561, 38.1193 ], [ 26.5604, 38.1174 ], [ 26.5526, 38.1176 ], [ 26.5524, 38.1215 ], [ 26.5435, 38.1196 ], [ 26.5424, 38.1218 ], [ 26.5443, 38.1268 ], [ 26.5418, 38.1271 ], [ 26.5415, 38.1293 ], [ 26.5351, 38.1265 ], [ 26.5301, 38.1276 ], [ 26.5313, 38.1299 ], [ 26.5296, 38.1304 ], [ 26.5304, 38.1351 ], [ 26.5287, 38.1374 ], [ 26.531, 38.139 ], [ 26.5224, 38.1407 ], [ 26.5204, 38.1424 ], [ 26.5215, 38.1543 ], [ 26.519, 38.159 ], [ 26.516, 38.1601 ], [ 26.5115, 38.1657 ], [ 26.5129, 38.1701 ], [ 26.5156, 38.1707 ], [ 26.5199, 38.1651 ], [ 26.5199, 38.171 ], [ 26.516, 38.1749 ], [ 26.5176, 38.1801 ], [ 26.521, 38.1821 ], [ 26.5185, 38.184 ], [ 26.5179, 38.1871 ], [ 26.5135, 38.1813 ], [ 26.5054, 38.1751 ], [ 26.5021, 38.1779 ], [ 26.5012, 38.1829 ], [ 26.4974, 38.1776 ], [ 26.4965, 38.1796 ], [ 26.4871, 38.1829 ], [ 26.4863, 38.1862 ], [ 26.4924, 38.1918 ], [ 26.4907, 38.1957 ], [ 26.4885, 38.1957 ], [ 26.4871, 38.1921 ], [ 26.4782, 38.1901 ], [ 26.4776, 38.1915 ], [ 26.4749, 38.1915 ], [ 26.4737, 38.1899 ], [ 26.4693, 38.1901 ], [ 26.4649, 38.1949 ], [ 26.4582, 38.1915 ], [ 26.4565, 38.1949 ], [ 26.4596, 38.1968 ], [ 26.4596, 38.1992 ], [ 26.4716, 38.2091 ] ] ], [ [ [ 26.7901, 38.3774 ], [ 26.7921, 38.3749 ], [ 26.7899, 38.3746 ], [ 26.7879, 38.3704 ], [ 26.7832, 38.3674 ], [ 26.7829, 38.371 ], [ 26.7854, 38.3735 ], [ 26.7846, 38.3757 ], [ 26.7871, 38.3776 ], [ 26.7901, 38.3774 ] ] ], [ [ [ 26.791, 38.3993 ], [ 26.7921, 38.3954 ], [ 26.786, 38.3929 ], [ 26.7838, 38.3943 ], [ 26.7865, 38.3985 ], [ 26.791, 38.3993 ] ] ], [ [ [ 26.771, 38.4101 ], [ 26.7738, 38.4074 ], [ 26.7699, 38.4043 ], [ 26.7682, 38.4104 ], [ 26.771, 38.4101 ] ] ], [ [ [ 26.679, 38.3329 ], [ 26.6787, 38.3296 ], [ 26.6743, 38.3293 ], [ 26.6743, 38.3324 ], [ 26.6771, 38.3338 ], [ 26.679, 38.3329 ] ] ], [ [ [ 26.4546, 38.3679 ], [ 26.4579, 38.3632 ], [ 26.4568, 38.3599 ], [ 26.4529, 38.359 ], [ 26.4463, 38.3638 ], [ 26.449, 38.3674 ], [ 26.4546, 38.3679 ] ] ], [ [ [ 26.4668, 38.3815 ], [ 26.4668, 38.3754 ], [ 26.4615, 38.3743 ], [ 26.4657, 38.3818 ], [ 26.4668, 38.3815 ] ] ], [ [ [ 26.4499, 38.3899 ], [ 26.451, 38.3874 ], [ 26.449, 38.3857 ], [ 26.4476, 38.3896 ], [ 26.4499, 38.3899 ] ] ], [ [ [ 26.4496, 38.3932 ], [ 26.4482, 38.3913 ], [ 26.4465, 38.3913 ], [ 26.4485, 38.3949 ], [ 26.4496, 38.3932 ] ] ], [ [ [ 26.4654, 38.4021 ], [ 26.466, 38.3954 ], [ 26.4685, 38.3904 ], [ 26.4674, 38.3874 ], [ 26.4646, 38.3868 ], [ 26.4615, 38.3968 ], [ 26.4626, 38.4021 ], [ 26.4654, 38.4021 ] ] ], [ [ [ 26.4693, 38.3957 ], [ 26.4671, 38.3968 ], [ 26.4682, 38.4004 ], [ 26.4696, 38.4004 ], [ 26.4693, 38.3957 ] ] ], [ [ [ 26.4929, 38.4049 ], [ 26.4918, 38.4035 ], [ 26.4899, 38.4043 ], [ 26.4907, 38.4054 ], [ 26.4929, 38.4049 ] ] ], [ [ [ 26.7968, 38.4146 ], [ 26.7993, 38.4074 ], [ 26.7932, 38.4065 ], [ 26.7921, 38.4107 ], [ 26.7943, 38.4149 ], [ 26.7968, 38.4146 ] ] ], [ [ [ 26.7835, 38.4174 ], [ 26.7854, 38.4162 ], [ 26.7851, 38.4146 ], [ 26.7804, 38.416 ], [ 26.7815, 38.4182 ], [ 26.7835, 38.4174 ] ] ], [ [ [ 26.7679, 38.4549 ], [ 26.7732, 38.4532 ], [ 26.7718, 38.4482 ], [ 26.7749, 38.4465 ], [ 26.7763, 38.441 ], [ 26.7643, 38.4349 ], [ 26.7582, 38.4399 ], [ 26.7593, 38.4526 ], [ 26.7615, 38.4543 ], [ 26.7679, 38.4549 ] ] ], [ [ [ 26.6999, 38.5465 ], [ 26.701, 38.5435 ], [ 26.7043, 38.5412 ], [ 26.7054, 38.5432 ], [ 26.7154, 38.5415 ], [ 26.7188, 38.536 ], [ 26.7218, 38.5357 ], [ 26.7215, 38.5335 ], [ 26.7276, 38.5324 ], [ 26.7293, 38.5299 ], [ 26.7301, 38.5268 ], [ 26.7285, 38.5218 ], [ 26.7313, 38.5201 ], [ 26.7315, 38.516 ], [ 26.7351, 38.5151 ], [ 26.731, 38.5107 ], [ 26.731, 38.4968 ], [ 26.7343, 38.4932 ], [ 26.7376, 38.4921 ], [ 26.7446, 38.4932 ], [ 26.7451, 38.4918 ], [ 26.7432, 38.4918 ], [ 26.7426, 38.4901 ], [ 26.7451, 38.4854 ], [ 26.7496, 38.4818 ], [ 26.7479, 38.4774 ], [ 26.7479, 38.4701 ], [ 26.7468, 38.4674 ], [ 26.7449, 38.4668 ], [ 26.7424, 38.4588 ], [ 26.7393, 38.4585 ], [ 26.7368, 38.4604 ], [ 26.7332, 38.4585 ], [ 26.721, 38.4604 ], [ 26.7213, 38.4618 ], [ 26.7237, 38.4618 ], [ 26.7279, 38.4699 ], [ 26.7271, 38.4721 ], [ 26.7249, 38.471 ], [ 26.719, 38.4724 ], [ 26.7149, 38.4743 ], [ 26.714, 38.4771 ], [ 26.7118, 38.4751 ], [ 26.7115, 38.4776 ], [ 26.7062, 38.4785 ], [ 26.704, 38.4785 ], [ 26.7035, 38.4754 ], [ 26.701, 38.4746 ], [ 26.6943, 38.4796 ], [ 26.6949, 38.4888 ], [ 26.6926, 38.4968 ], [ 26.6954, 38.5071 ], [ 26.6935, 38.5115 ], [ 26.6954, 38.516 ], [ 26.6949, 38.5196 ], [ 26.6988, 38.519 ], [ 26.7024, 38.5215 ], [ 26.7015, 38.5324 ], [ 26.7062, 38.5354 ], [ 26.7062, 38.5374 ], [ 26.7032, 38.5404 ], [ 26.7007, 38.5404 ], [ 26.6974, 38.5471 ], [ 26.6999, 38.5465 ] ] ] ] } }
]
}
